{
"type": "FeatureCollection",
"crs": { "type": "name", "properties": { "name": "urn:ogc:def:crs:OGC:1.3:CRS84" } },
                                                                                
"features": [
{ "type": "Feature", "properties": { "ESITEID": 223957.000000, "FSCS_ID": "VT0141", "LIBRARY": "Sheldon Public", "GEONAMEID": 18404, "HOUSENUMBE": "1640", "CALCADDRES": 1640, "PRIMARYADD": "1640 MAIN ST", "SITETYPE": "GOVERNMENT", "TOWNNAME": "SHELDON", "ZIP": "05483", "GPSX": -72.946655, "GPSY": 44.880596, "MAIL": "PO Box 66", "STREETAD": "1640 Main St", "WEBADDRESS": "-", "CITY": "Sheldon", "COUNTY": "Franklin", "TEL_NUM": "(802) 933-7323", "DIGINAME": "SheldonPublic", "CONFIRMDAT": null, "CONFIRMPER": null }, "geometry": { "type": "Point", "coordinates": [ -72.946655273339431, 44.880596161649237 ] } },
{ "type": "Feature", "properties": { "ESITEID": 225399.000000, "FSCS_ID": "VT0142", "LIBRARY": "Sherburne Memorial", "GEONAMEID": 18443, "HOUSENUMBE": "2998", "CALCADDRES": 2998, "PRIMARYADD": "2998 RIVER RD", "SITETYPE": "PUBLIC GATHERING", "TOWNNAME": "KILLINGTON", "ZIP": "05751", "GPSX": -72.777432, "GPSY": 43.671911, "MAIL": "PO Box 73", "STREETAD": "2998 River Rd", "WEBADDRESS": "http:\/\/sherlib.wordpress.com", "CITY": "Killington", "COUNTY": "Rutland", "TEL_NUM": "(802) 422-9765", "DIGINAME": "SherburneMemorial", "CONFIRMDAT": null, "CONFIRMPER": null }, "geometry": { "type": "Point", "coordinates": [ -72.777431918453829, 43.671910668557715 ] } },
{ "type": "Feature", "properties": { "ESITEID": 225825.000000, "FSCS_ID": "VT0143", "LIBRARY": "Platt Memorial", "GEONAMEID": 18587, "HOUSENUMBE": "279", "CALCADDRES": 279, "PRIMARYADD": "279 MAIN ST", "SITETYPE": "EDUCATIONAL", "TOWNNAME": "SHOREHAM", "ZIP": "05770", "GPSX": -73.314545, "GPSY": 43.893459, "MAIL": "279 Main St", "STREETAD": "279 Main St", "WEBADDRESS": "www.plattlib.org", "CITY": "Shoreham", "COUNTY": "Addison", "TEL_NUM": "(802) 897-2647", "DIGINAME": "PlattMemorial", "CONFIRMDAT": null, "CONFIRMPER": null }, "geometry": { "type": "Point", "coordinates": [ -73.314544677235133, 43.893459319682407 ] } },
{ "type": "Feature", "properties": { "ESITEID": 226633.000000, "FSCS_ID": "VT0144", "LIBRARY": "Shrewsbury", "GEONAMEID": 18648, "HOUSENUMBE": "98", "CALCADDRES": 98, "PRIMARYADD": "98 TOWN HILL RD", "SITETYPE": "EDUCATIONAL", "TOWNNAME": "SHREWSBURY", "ZIP": "05738", "GPSX": -72.880867, "GPSY": 43.489445, "MAIL": "PO Box 396", "STREETAD": "98 Town Hill Rd", "WEBADDRESS": "www.shrewsburylibrary.org", "CITY": "Shrewsbury", "COUNTY": "Rutland", "TEL_NUM": "(802) 492-3410", "DIGINAME": "Shrewsbury", "CONFIRMDAT": null, "CONFIRMPER": null }, "geometry": { "type": "Point", "coordinates": [ -72.880867005260399, 43.489444733449503 ] } },
{ "type": "Feature", "properties": { "ESITEID": 229100.000000, "FSCS_ID": "VT0145", "LIBRARY": "South  Burlington Community", "GEONAMEID": 18792, "HOUSENUMBE": "550", "CALCADDRES": 550, "PRIMARYADD": "550 DORSET ST", "SITETYPE": "EDUCATIONAL", "TOWNNAME": "SOUTH BURLINGTON", "ZIP": "05403", "GPSX": -73.177891, "GPSY": 44.454924, "MAIL": "550 Dorset St", "STREETAD": "-", "WEBADDRESS": "http:\/\/sbcl.sbschools.net", "CITY": "S. Burlington", "COUNTY": "Chittenden", "TEL_NUM": "(802) 652-7080", "DIGINAME": "SouthBurlington", "CONFIRMDAT": null, "CONFIRMPER": null }, "geometry": { "type": "Point", "coordinates": [ -73.177891025082616, 44.454923584967631 ] } },
{ "type": "Feature", "properties": { "ESITEID": 233896.000000, "FSCS_ID": "VT0146", "LIBRARY": "South Hero Community", "GEONAMEID": 19029, "HOUSENUMBE": "75", "CALCADDRES": 75, "PRIMARYADD": "75 SOUTH ST", "SITETYPE": "EDUCATIONAL", "TOWNNAME": "SOUTH HERO", "ZIP": "05486", "GPSX": -73.302208, "GPSY": 44.636311, "MAIL": "75 South St", "STREETAD": "75 South St", "WEBADDRESS": "www.southherolibrary.org", "CITY": "South Hero", "COUNTY": "Grand Isle", "TEL_NUM": "(802) 372-6209", "DIGINAME": "SouthHeroCommunity", "CONFIRMDAT": null, "CONFIRMPER": null }, "geometry": { "type": "Point", "coordinates": [ -73.302207946908069, 44.636310576875694 ] } },
{ "type": "Feature", "properties": { "ESITEID": 26867.000000, "FSCS_ID": "VT0018", "LIBRARY": "Bradford Public", "GEONAMEID": 2789, "HOUSENUMBE": "21", "CALCADDRES": 21, "PRIMARYADD": "21 S MAIN ST", "SITETYPE": "CULTURAL", "TOWNNAME": "BRADFORD", "ZIP": "05033", "GPSX": -72.128535, "GPSY": 43.992983, "MAIL": "PO Box 619", "STREETAD": "21 S Main St", "WEBADDRESS": "http:\/\/bradfordvtlibrary.org", "CITY": "Bradford", "COUNTY": "Orange", "TEL_NUM": "(802) 222-4536", "DIGINAME": "BradfordPublic", "CONFIRMDAT": null, "CONFIRMPER": null }, "geometry": { "type": "Point", "coordinates": [ -72.128534710063519, 43.992982744225564 ] } },
{ "type": "Feature", "properties": { "ESITEID": 236243.000000, "FSCS_ID": "VT0147", "LIBRARY": "Springfield Town", "GEONAMEID": 19481, "HOUSENUMBE": "43", "CALCADDRES": 43, "PRIMARYADD": "43 MAIN ST", "SITETYPE": "COMMERCIAL", "TOWNNAME": "SPRINGFIELD", "ZIP": "05156", "GPSX": -72.482235, "GPSY": 43.298179, "MAIL": "43 Main St", "STREETAD": "-", "WEBADDRESS": "www.springfieldtownlibrary.org", "CITY": "Springfield", "COUNTY": "Windsor", "TEL_NUM": "(802) 885-3108", "DIGINAME": "SpringfieldTown", "CONFIRMDAT": "2014\/12\/23", "CONFIRMPER": "Russ Moore - Springfield" }, "geometry": { "type": "Point", "coordinates": [ -72.482234592312423, 43.298179298982284 ] } },
{ "type": "Feature", "properties": { "ESITEID": 247586.000000, "FSCS_ID": "VT0148", "LIBRARY": "Stamford Community", "GEONAMEID": 20041, "HOUSENUMBE": "986", "CALCADDRES": 986, "PRIMARYADD": "986 MAIN RD", "SITETYPE": "EDUCATIONAL", "TOWNNAME": "STAMFORD", "ZIP": "05352", "GPSX": -73.067411, "GPSY": 42.754825, "MAIL": "986 Main Rd", "STREETAD": "-", "WEBADDRESS": "http:\/\/stamfordlibrary.org\/stamford", "CITY": "Stamford", "COUNTY": "Bennington", "TEL_NUM": "(802) 694-1379", "DIGINAME": "StamfordCommunity", "CONFIRMDAT": null, "CONFIRMPER": null }, "geometry": { "type": "Point", "coordinates": [ -73.067411080340094, 42.754825273154346 ] } },
{ "type": "Feature", "properties": { "ESITEID": 248289.000000, "FSCS_ID": "VT0149", "LIBRARY": "Starksboro Public", "GEONAMEID": 20083, "HOUSENUMBE": "2827", "CALCADDRES": 2827, "PRIMARYADD": "2827 VT ROUTE 116", "SITETYPE": "GOVERNMENT", "TOWNNAME": "STARKSBORO", "ZIP": "05443", "GPSX": -73.057167, "GPSY": 44.225185, "MAIL": "PO Box 124", "STREETAD": "2827 VT Route 116", "WEBADDRESS": "starksborolibrary.wordpress.com", "CITY": "Starksboro", "COUNTY": "Addison", "TEL_NUM": "(802) 453-3732", "DIGINAME": "StarksboroPublic", "CONFIRMDAT": null, "CONFIRMPER": null }, "geometry": { "type": "Point", "coordinates": [ -73.057167053341246, 44.22518539485128 ] } },
{ "type": "Feature", "properties": { "ESITEID": 261429.000000, "FSCS_ID": "VT0159", "LIBRARY": "Townshend Public", "GEONAMEID": 20977, "HOUSENUMBE": "1971", "CALCADDRES": 1971, "PRIMARYADD": "1971 VT ROUTE 30", "SITETYPE": "EDUCATIONAL", "TOWNNAME": "TOWNSHEND", "ZIP": "05353", "GPSX": -72.667076, "GPSY": 43.045063, "MAIL": "PO Box 252", "STREETAD": "1971 VT Route 30", "WEBADDRESS": "www.townshendlibrary.org", "CITY": "Townshend", "COUNTY": "Windham", "TEL_NUM": "(802) 365-4039", "DIGINAME": "TownshendPublic", "CONFIRMDAT": null, "CONFIRMPER": null }, "geometry": { "type": "Point", "coordinates": [ -72.667076109953797, 43.045063019598132 ] } },
{ "type": "Feature", "properties": { "ESITEID": 261780.000000, "FSCS_ID": "VT0160", "LIBRARY": "Wm. & Lucy Rand Memorial", "GEONAMEID": 21039, "HOUSENUMBE": "160", "CALCADDRES": 160, "PRIMARYADD": "160 RAILROAD ST", "SITETYPE": "FIRE STATION", "TOWNNAME": "TROY", "ZIP": "05868", "GPSX": -72.405322, "GPSY": 44.997642, "MAIL": "PO Box 509", "STREETAD": "160 Railroad St", "WEBADDRESS": "www.randmemoriallibrary.org", "CITY": "North Troy", "COUNTY": "Orleans", "TEL_NUM": "(802) 988-4741", "DIGINAME": "WmLucyRandMemorial", "CONFIRMDAT": null, "CONFIRMPER": null }, "geometry": { "type": "Point", "coordinates": [ -72.405321811995847, 44.997642368592182 ] } },
{ "type": "Feature", "properties": { "ESITEID": 83007.000000, "FSCS_ID": "VT0048", "LIBRARY": "Dailey Memorial", "GEONAMEID": 6267, "HOUSENUMBE": "101", "CALCADDRES": 101, "PRIMARYADD": "101 JUNIOR HIGH DR", "SITETYPE": "CULTURAL", "TOWNNAME": "DERBY", "ZIP": "05829", "GPSX": -72.132223, "GPSY": 44.948855, "MAIL": "101 Junior High Dr", "STREETAD": "Next to North Country Union Junior High School", "WEBADDRESS": "daileymemoriallibrary.org", "CITY": "Derby", "COUNTY": "Orleans", "TEL_NUM": "(802) 766-5063", "DIGINAME": "DaileyMemorial", "CONFIRMDAT": null, "CONFIRMPER": null }, "geometry": { "type": "Point", "coordinates": [ -72.132222631699591, 44.948855329253533 ] } },
{ "type": "Feature", "properties": { "ESITEID": 288271.000000, "FSCS_ID": "VT0187", "LIBRARY": "Ainsworth Public", "GEONAMEID": 23531, "HOUSENUMBE": "2338", "CALCADDRES": 2338, "PRIMARYADD": "2338 VT ROUTE 14", "SITETYPE": "CULTURAL", "TOWNNAME": "WILLIAMSTOWN", "ZIP": "05679", "GPSX": -72.541458, "GPSY": 44.122517, "MAIL": "PO Box 236", "STREETAD": "2338 VT Route 14", "WEBADDRESS": "ainsworthpubliclibrary.wordpress.com", "CITY": "Williamstown", "COUNTY": "Orange", "TEL_NUM": "(802) 433-5887", "DIGINAME": "AinsworthPublic", "CONFIRMDAT": null, "CONFIRMPER": null }, "geometry": { "type": "Point", "coordinates": [ -72.541458129684216, 44.122516632015198 ] } },
{ "type": "Feature", "properties": { "ESITEID": 281092.000000, "FSCS_ID": "VT0178", "LIBRARY": "Hitchcock Museum & Library", "GEONAMEID": 22864, "HOUSENUMBE": "1252", "CALCADDRES": 1252, "PRIMARYADD": "1252 VT ROUTE 100", "SITETYPE": "CULTURAL", "TOWNNAME": "WESTFIELD", "ZIP": "05874", "GPSX": -72.429252, "GPSY": 44.887731, "MAIL": "PO Box 87", "STREETAD": "1252  100", "WEBADDRESS": "(none)", "CITY": "Westfield", "COUNTY": "Orleans", "TEL_NUM": "(802) 744-8258", "DIGINAME": "HitchcockLibrary", "CONFIRMDAT": null, "CONFIRMPER": null }, "geometry": { "type": "Point", "coordinates": [ -72.429251969109927, 44.887731197312561 ] } },
{ "type": "Feature", "properties": { "ESITEID": 258602.000000, "FSCS_ID": "VT0157", "LIBRARY": "George Peabody", "GEONAMEID": 20705, "HOUSENUMBE": "7922", "CALCADDRES": 7922, "PRIMARYADD": "7922 VT ROUTE 113", "SITETYPE": "CULTURAL", "TOWNNAME": "THETFORD", "ZIP": "05045", "GPSX": -72.260727, "GPSY": 43.885300, "MAIL": "PO Box 190", "STREETAD": "7922 VT Route 113", "WEBADDRESS": "thetfordlibraries.org", "CITY": "Post Mills", "COUNTY": "Orange", "TEL_NUM": "(802) 333-9724", "DIGINAME": "GeorgePeabody", "CONFIRMDAT": null, "CONFIRMPER": null }, "geometry": { "type": "Point", "coordinates": [ -72.260726929494481, 43.88529968254425 ] } },
{ "type": "Feature", "properties": { "ESITEID": 264625.000000, "FSCS_ID": "VT0164", "LIBRARY": "Bixby Memorial", "GEONAMEID": 21340, "HOUSENUMBE": "258", "CALCADDRES": 258, "PRIMARYADD": "258 MAIN ST", "SITETYPE": "EDUCATIONAL", "TOWNNAME": "VERGENNES", "ZIP": "05491", "GPSX": -73.253696, "GPSY": 44.167527, "MAIL": "258 Main St", "STREETAD": "-", "WEBADDRESS": "http:\/\/bixbylibrary.org", "CITY": "Vergennes", "COUNTY": "Addison", "TEL_NUM": "(802) 877-2211", "DIGINAME": "BixbyMemorial", "CONFIRMDAT": null, "CONFIRMPER": null }, "geometry": { "type": "Point", "coordinates": [ -73.253696349228576, 44.167527048379306 ] } },
{ "type": "Feature", "properties": { "ESITEID": 265708.000000, "FSCS_ID": "VT0165", "LIBRARY": "Vernon Free", "GEONAMEID": 28599, "HOUSENUMBE": "567", "CALCADDRES": 567, "PRIMARYADD": "567 GOVERNOR HUNT RD", "SITETYPE": "GOVERNMENT", "TOWNNAME": "VERNON", "ZIP": "05354", "GPSX": -72.521809, "GPSY": 42.779883, "MAIL": "567 Governor Hunt Rd", "STREETAD": "-", "WEBADDRESS": "http:\/\/vernonfreelibrary.org", "CITY": "Vernon", "COUNTY": "Windham", "TEL_NUM": "(802) 257-0150", "DIGINAME": "VernonFree", "CONFIRMDAT": null, "CONFIRMPER": null }, "geometry": { "type": "Point", "coordinates": [ -72.521809021961275, 42.779882882575798 ] } },
{ "type": "Feature", "properties": { "ESITEID": 268754.000000, "FSCS_ID": "VT0167", "LIBRARY": "Walden Community", "GEONAMEID": 21550, "HOUSENUMBE": "135", "CALCADDRES": 135, "PRIMARYADD": "135 CAHOON FARM RD", "SITETYPE": "EDUCATIONAL", "TOWNNAME": "WALDEN", "ZIP": "05873", "GPSX": -72.219322, "GPSY": 44.452801, "MAIL": "135 Cahoon Farm Rd", "STREETAD": "-", "WEBADDRESS": "(none)", "CITY": "West Danville", "COUNTY": "Caledonia", "TEL_NUM": "(802) 563-3000", "DIGINAME": "WaldenCommunity", "CONFIRMDAT": null, "CONFIRMPER": null }, "geometry": { "type": "Point", "coordinates": [ -72.219322204206875, 44.45280075181315 ] } },
{ "type": "Feature", "properties": { "ESITEID": 2381.000000, "FSCS_ID": "VT0002", "LIBRARY": "Alburg Public", "GEONAMEID": 25923, "HOUSENUMBE": "16", "CALCADDRES": 16, "PRIMARYADD": "16 S MAIN ST", "SITETYPE": "CULTURAL", "TOWNNAME": "ALBURGH", "ZIP": "05440", "GPSX": -73.301184, "GPSY": 44.975271, "MAIL": "PO Box 344", "STREETAD": "16 S Main St", "WEBADDRESS": "http:\/\/alburghpl.com", "CITY": "Alburg", "COUNTY": "Grand Isle", "TEL_NUM": "(802) 796-6077", "DIGINAME": "AlburgPublic", "CONFIRMDAT": null, "CONFIRMPER": null }, "geometry": { "type": "Point", "coordinates": [ -73.301184375453033, 44.975271143498809 ] } },
{ "type": "Feature", "properties": { "ESITEID": 269319.000000, "FSCS_ID": "VT0168", "LIBRARY": "Gilbert Hart", "GEONAMEID": 25188, "HOUSENUMBE": "14", "CALCADDRES": 14, "PRIMARYADD": "14 S MAIN ST", "SITETYPE": "EDUCATIONAL", "TOWNNAME": "WALLINGFORD", "ZIP": "05773", "GPSX": -72.977598, "GPSY": 43.471549, "MAIL": "PO Box 69", "STREETAD": "14 S Main St", "WEBADDRESS": "ghlib.wordpress.com", "CITY": "Wallingford", "COUNTY": "Rutland", "TEL_NUM": "(802) 446-2685", "DIGINAME": "GilbertHart", "CONFIRMDAT": null, "CONFIRMPER": null }, "geometry": { "type": "Point", "coordinates": [ -72.977598042166989, 43.471549190231855 ] } },
{ "type": "Feature", "properties": { "ESITEID": 271924.000000, "FSCS_ID": "VT0170", "LIBRARY": "Warren Public", "GEONAMEID": 21839, "HOUSENUMBE": "413", "CALCADDRES": 413, "PRIMARYADD": "413 MAIN ST", "SITETYPE": "GOVERNMENT", "TOWNNAME": "WARREN", "ZIP": "05674", "GPSX": -72.855705, "GPSY": 44.112694, "MAIL": "PO Box 287", "STREETAD": "413 Main Street", "WEBADDRESS": "http:\/\/www.warrenlibrary.com\/warren\/", "CITY": "Warren", "COUNTY": "Washington", "TEL_NUM": "(802) 496-3913", "DIGINAME": "WarrenPublic", "CONFIRMDAT": "2014\/12\/23", "CONFIRMPER": "Deborah Kahn - Warren Public" }, "geometry": { "type": "Point", "coordinates": [ -72.855705262474473, 44.112693786969423 ] } },
{ "type": "Feature", "properties": { "ESITEID": 141613.000000, "FSCS_ID": "VT0084", "LIBRARY": "South Londonderry Free", "GEONAMEID": 11150, "HOUSENUMBE": "15", "CALCADDRES": 15, "PRIMARYADD": "15 OLD SCHOOL ST", "SITETYPE": "EDUCATIONAL", "TOWNNAME": "LONDONDERRY", "ZIP": "05155", "GPSX": -72.812569, "GPSY": 43.191006, "MAIL": "PO Box 95", "STREETAD": "15 Old School St", "WEBADDRESS": "londonderryvt.org", "CITY": "S. Londonderry", "COUNTY": "Windham", "TEL_NUM": "(802) 824-3371", "DIGINAME": "SouthLondonderry", "CONFIRMDAT": null, "CONFIRMPER": null }, "geometry": { "type": "Point", "coordinates": [ -72.812568664457942, 43.191005707497894 ] } },
{ "type": "Feature", "properties": { "ESITEID": 145556.000000, "FSCS_ID": "VT0087", "LIBRARY": "Alden Balch Memorial", "GEONAMEID": 28583, "HOUSENUMBE": "24", "CALCADDRES": 24, "PRIMARYADD": "24 E MAIN ST", "SITETYPE": "GOVERNMENT", "TOWNNAME": "LUNENBURG", "ZIP": "05906", "GPSX": -71.681566, "GPSY": 44.463057, "MAIL": "PO Box 6", "STREETAD": "24 E Main St", "WEBADDRESS": "(none)", "CITY": "Lunenburg", "COUNTY": "Essex", "TEL_NUM": "(802) 892-5365", "DIGINAME": "AldenBalch", "CONFIRMDAT": null, "CONFIRMPER": null }, "geometry": { "type": "Point", "coordinates": [ -71.68156635288922, 44.463057093681854 ] } },
{ "type": "Feature", "properties": { "ESITEID": 151005.000000, "FSCS_ID": "VT0090", "LIBRARY": "Mark Skinner", "GEONAMEID": 11625, "HOUSENUMBE": "48", "CALCADDRES": 48, "PRIMARYADD": "48 WEST RD", "SITETYPE": "EDUCATIONAL", "TOWNNAME": "MANCHESTER", "ZIP": "05254", "GPSX": -73.071678, "GPSY": 43.164227, "MAIL": "PO Box 438", "STREETAD": "48 West Rd", "WEBADDRESS": "www.markskinnerlibrary.org", "CITY": "Manchester", "COUNTY": "Bennington", "TEL_NUM": "(802) 362-2607", "DIGINAME": "MarkSkinner", "CONFIRMDAT": null, "CONFIRMPER": null }, "geometry": { "type": "Point", "coordinates": [ -73.071678162267773, 43.164226531316253 ] } },
{ "type": "Feature", "properties": { "ESITEID": 153171.000000, "FSCS_ID": "VT0091", "LIBRARY": "Jaquith Public", "GEONAMEID": 11974, "HOUSENUMBE": "122", "CALCADDRES": 122, "PRIMARYADD": "122 SCHOOL ST", "SITETYPE": "GOVERNMENT", "TOWNNAME": "MARSHFIELD", "ZIP": "05658", "GPSX": -72.355082, "GPSY": 44.349356, "MAIL": "PO Box 227", "STREETAD": "122 School St", "WEBADDRESS": "www.marshfield.lib.vt.us", "CITY": "Marshfield", "COUNTY": "Washington", "TEL_NUM": "(802) 426-3581", "DIGINAME": "JaquithPublic", "CONFIRMDAT": null, "CONFIRMPER": null }, "geometry": { "type": "Point", "coordinates": [ -72.355082091957854, 44.34935633020725 ] } },
{ "type": "Feature", "properties": { "ESITEID": 155078.000000, "FSCS_ID": "VT0092", "LIBRARY": "Ilsley Public", "GEONAMEID": 12126, "HOUSENUMBE": "75", "CALCADDRES": 75, "PRIMARYADD": "75 MAIN ST", "SITETYPE": "GOVERNMENT", "TOWNNAME": "MIDDLEBURY", "ZIP": "05753", "GPSX": -73.169075, "GPSY": 44.012497, "MAIL": "75 Main St", "STREETAD": "75 Main Street", "WEBADDRESS": "www.ilsleypubliclibrary.org", "CITY": "Middlebury", "COUNTY": "Addison", "TEL_NUM": "(802) 388-4095", "DIGINAME": "IlsleyPublic", "CONFIRMDAT": null, "CONFIRMPER": null }, "geometry": { "type": "Point", "coordinates": [ -73.169074603080603, 44.012496675671933 ] } },
{ "type": "Feature", "properties": { "ESITEID": 162571.000000, "FSCS_ID": "VT0095", "LIBRARY": "Milton Public", "GEONAMEID": 30542, "HOUSENUMBE": "39", "CALCADDRES": 39, "PRIMARYADD": "39 BOMBARDIER RD", "SITETYPE": "GOVERNMENT", "TOWNNAME": "MILTON", "ZIP": "05468", "GPSX": -73.124335, "GPSY": 44.619153, "MAIL": "39 Bombardier Rd", "STREETAD": "Milton Municipal Building", "WEBADDRESS": "www.miltonlibraryvt.org", "CITY": "Milton", "COUNTY": "Chittenden", "TEL_NUM": "(802) 893-4644", "DIGINAME": "MiltonPublic", "CONFIRMDAT": null, "CONFIRMPER": null }, "geometry": { "type": "Point", "coordinates": [ -73.12433517846533, 44.61915335363264 ] } },
{ "type": "Feature", "properties": { "ESITEID": 162767.000000, "FSCS_ID": "VT0096", "LIBRARY": "Russell Memorial", "GEONAMEID": 12401, "HOUSENUMBE": "4333", "CALCADDRES": 4333, "PRIMARYADD": "4333 STATE'S PRISON HOLLOW RD", "SITETYPE": "GOVERNMENT", "TOWNNAME": "MONKTON", "ZIP": "05443", "GPSX": -73.123444, "GPSY": 44.254066, "MAIL": "PO Box 39", "STREETAD": "4333 State Prison Hollow Rd", "WEBADDRESS": "russelllibraryvt.wordpress.com", "CITY": "Monkton", "COUNTY": "Addison", "TEL_NUM": "(802) 453-4471", "DIGINAME": "RussellMemorial", "CONFIRMDAT": null, "CONFIRMPER": null }, "geometry": { "type": "Point", "coordinates": [ -73.12344360373055, 44.25406646769914 ] } },
{ "type": "Feature", "properties": { "ESITEID": 167580.000000, "FSCS_ID": "VT0099", "LIBRARY": "Moretown Memorial", "GEONAMEID": 12876, "HOUSENUMBE": "897", "CALCADDRES": 897, "PRIMARYADD": "897 VT ROUTE 100B", "SITETYPE": "GOVERNMENT", "TOWNNAME": "MORETOWN", "ZIP": "05660", "GPSX": -72.763977, "GPSY": 44.247589, "MAIL": "897 VT Route 100 B", "STREETAD": "-", "WEBADDRESS": "http:\/\/www.moretownvt.org\/moretown-library\/", "CITY": "Moretown", "COUNTY": "Washington", "TEL_NUM": "(802) 496-9728", "DIGINAME": "MoretownMemorial", "CONFIRMDAT": null, "CONFIRMPER": null }, "geometry": { "type": "Point", "coordinates": [ -72.763977050461079, 44.247589111296364 ] } },
{ "type": "Feature", "properties": { "ESITEID": 207283.000000, "FSCS_ID": "VT0132", "LIBRARY": "R.K.Kittay Public", "GEONAMEID": 17022, "HOUSENUMBE": "2827", "CALCADDRES": 2827, "PRIMARYADD": "2827 STATE HWY 153", "SITETYPE": "SINGLE FAMILY DWELLING", "TOWNNAME": "RUPERT", "ZIP": "05776", "GPSX": -73.224701, "GPSY": 43.258865, "MAIL": "PO Box 53", "STREETAD": "2827 State Hwy 153", "WEBADDRESS": "rupertkittaylibrary.org", "CITY": "W. Rupert", "COUNTY": "Bennington", "TEL_NUM": "(802) 394-2444", "DIGINAME": "RKKittayPublic", "CONFIRMDAT": null, "CONFIRMPER": null }, "geometry": { "type": "Point", "coordinates": [ -73.224700926510124, 43.258865355132961 ] } },
{ "type": "Feature", "properties": { "ESITEID": 165207.000000, "FSCS_ID": "VT0098", "LIBRARY": "Kellogg Hubbard", "GEONAMEID": 12519, "HOUSENUMBE": "135", "CALCADDRES": 135, "PRIMARYADD": "135 MAIN ST", "SITETYPE": "CULTURAL", "TOWNNAME": "MONTPELIER", "ZIP": "05602", "GPSX": -72.573708, "GPSY": 44.261121, "MAIL": "135 Main St", "STREETAD": "135 Main St", "WEBADDRESS": "Kellogghubbard.org", "CITY": "Montpelier", "COUNTY": "Washington", "TEL_NUM": "(802) 223-3338", "DIGINAME": "KelloggHubbard", "CONFIRMDAT": null, "CONFIRMPER": null }, "geometry": { "type": "Point", "coordinates": [ -72.573573272445614, 44.261133421843709 ] } },
{ "type": "Feature", "properties": { "ESITEID": 250992.000000, "FSCS_ID": "VT0151", "LIBRARY": "Stowe Free", "GEONAMEID": 20299, "HOUSENUMBE": "90", "CALCADDRES": 90, "PRIMARYADD": "90 POND ST", "SITETYPE": "CULTURAL", "TOWNNAME": "STOWE", "ZIP": "05672", "GPSX": -72.684601, "GPSY": 44.464035, "MAIL": "PO Box 1029", "STREETAD": "90 Pond St", "WEBADDRESS": "http:\/\/www.stowelibrary.org\/", "CITY": "Stowe", "COUNTY": "Lamoille", "TEL_NUM": "(802) 253-6145", "DIGINAME": "StoweFree", "CONFIRMDAT": null, "CONFIRMPER": null }, "geometry": { "type": "Point", "coordinates": [ -72.684600831286303, 44.464035034555771 ] } },
{ "type": "Feature", "properties": { "ESITEID": 169349.000000, "FSCS_ID": "VT0100", "LIBRARY": "Morristown Centennial", "GEONAMEID": 13042, "HOUSENUMBE": "7", "CALCADDRES": 7, "PRIMARYADD": "7 RICHMOND ST", "SITETYPE": "PUBLIC GATHERING", "TOWNNAME": "MORRISTOWN", "ZIP": "05661", "GPSX": -72.595581, "GPSY": 44.562115, "MAIL": "PO Box 727", "STREETAD": "7 Richmond St", "WEBADDRESS": "www.centenniallibrary.org", "CITY": "Morrisville", "COUNTY": "Lamoille", "TEL_NUM": "(802) 888-3853", "DIGINAME": "MorristownCentennial", "CONFIRMDAT": null, "CONFIRMPER": null }, "geometry": { "type": "Point", "coordinates": [ -72.595581053703413, 44.562114715022012 ] } },
{ "type": "Feature", "properties": { "ESITEID": 171718.000000, "FSCS_ID": "VT0101", "LIBRARY": "Mount Holly Town", "GEONAMEID": 13336, "HOUSENUMBE": "26", "CALCADDRES": 26, "PRIMARYADD": "26 MAPLE HILL RD", "SITETYPE": "HOUSE OF WORSHIP", "TOWNNAME": "MOUNT HOLLY", "ZIP": "05742", "GPSX": -72.821281, "GPSY": 43.414467, "MAIL": "PO Box 93", "STREETAD": "26 Maple Hill Rd", "WEBADDRESS": "www.mounthollyvt.org", "CITY": "Belmont", "COUNTY": "Rutland", "TEL_NUM": "(802) 259-3707", "DIGINAME": "MountHollyTown", "CONFIRMDAT": null, "CONFIRMPER": null }, "geometry": { "type": "Point", "coordinates": [ -72.821281432848124, 43.414466857501495 ] } },
{ "type": "Feature", "properties": { "ESITEID": 174219.000000, "FSCS_ID": "VT0103", "LIBRARY": "Tenney Memorial", "GEONAMEID": 13637, "HOUSENUMBE": "4886", "CALCADDRES": 4886, "PRIMARYADD": "4886 MAIN ST S", "SITETYPE": "PUBLIC GATHERING", "TOWNNAME": "NEWBURY", "ZIP": "05051", "GPSX": -72.056557, "GPSY": 44.080460, "MAIL": "PO Box 85", "STREETAD": "4886 Main St S", "WEBADDRESS": "http:\/\/tenneymemoriallibrary.org\/", "CITY": "Newbury", "COUNTY": "Orange", "TEL_NUM": "(802) 866-5366", "DIGINAME": "TenneyMemorial", "CONFIRMDAT": null, "CONFIRMPER": null }, "geometry": { "type": "Point", "coordinates": [ -72.056556702936703, 44.080459594013455 ] } },
{ "type": "Feature", "properties": { "ESITEID": 173617.000000, "FSCS_ID": "VT0104", "LIBRARY": "Bladwin Memorial", "GEONAMEID": 13523, "HOUSENUMBE": "33", "CALCADDRES": 33, "PRIMARYADD": "33 MAIN ST N", "SITETYPE": "PUBLIC GATHERING", "TOWNNAME": "NEWBURY", "ZIP": "05081", "GPSX": -72.047078, "GPSY": 44.153418, "MAIL": "PO Box 337", "STREETAD": "33 Main St", "WEBADDRESS": "(none)", "CITY": "Wells River", "COUNTY": "Orange", "TEL_NUM": "(802) 757-2693", "DIGINAME": "BladwinMemorial", "CONFIRMDAT": null, "CONFIRMPER": null }, "geometry": { "type": "Point", "coordinates": [ -72.047077588193318, 44.153417925587178 ] } },
{ "type": "Feature", "properties": { "ESITEID": 175048.000000, "FSCS_ID": "VT0105", "LIBRARY": "Moore Free", "GEONAMEID": 13672, "HOUSENUMBE": "23", "CALCADDRES": 23, "PRIMARYADD": "23 WEST ST", "SITETYPE": "EDUCATIONAL", "TOWNNAME": "NEWFANE", "ZIP": "05345", "GPSX": -72.656865, "GPSY": 42.986647, "MAIL": "PO Box 208", "STREETAD": "23 West St", "WEBADDRESS": "moorefreelibrary.org", "CITY": "Newfane", "COUNTY": "Windham", "TEL_NUM": "(802) 365-7948", "DIGINAME": "MooreFree", "CONFIRMDAT": null, "CONFIRMPER": null }, "geometry": { "type": "Point", "coordinates": [ -72.65686492221964, 42.986646846586851 ] } },
{ "type": "Feature", "properties": { "ESITEID": 172318.000000, "FSCS_ID": "VT0106", "LIBRARY": "New Haven Community", "GEONAMEID": 13402, "HOUSENUMBE": "78", "CALCADDRES": 78, "PRIMARYADD": "78 NORTH ST", "SITETYPE": "PUBLIC GATHERING", "TOWNNAME": "NEW HAVEN", "ZIP": "05443", "GPSX": -73.153491, "GPSY": 44.126063, "MAIL": "PO Box 85", "STREETAD": "78 North St", "WEBADDRESS": "nhcl.org", "CITY": "New Haven", "COUNTY": "Addison", "TEL_NUM": "(802) 453-4015", "DIGINAME": "NewHavenCommunity", "CONFIRMDAT": null, "CONFIRMPER": null }, "geometry": { "type": "Point", "coordinates": [ -73.153491341954052, 44.126063043994598 ] } },
{ "type": "Feature", "properties": { "ESITEID": 157969.000000, "FSCS_ID": "VT0094", "LIBRARY": "Middletown Springs Public", "GEONAMEID": 29295, "HOUSENUMBE": "39", "CALCADDRES": 39, "PRIMARYADD": "39 WEST ST", "SITETYPE": "CULTURAL", "TOWNNAME": "MIDDLETOWN SPRINGS", "ZIP": "05757", "GPSX": -73.122147, "GPSY": 43.485097, "MAIL": "39 West St", "STREETAD": "-", "WEBADDRESS": "http:\/\/middletownsprings.wordpress.com", "CITY": "Middletown Spgs.", "COUNTY": "Rutland", "TEL_NUM": "(802) 235-2435", "DIGINAME": "MiddletownSprings", "CONFIRMDAT": null, "CONFIRMPER": null }, "geometry": { "type": "Point", "coordinates": [ -73.122147295468153, 43.485097150805672 ] } },
{ "type": "Feature", "properties": { "ESITEID": 180835.000000, "FSCS_ID": "VT0108", "LIBRARY": "Brown Public", "GEONAMEID": 14348, "HOUSENUMBE": "93", "CALCADDRES": 93, "PRIMARYADD": "93 S MAIN ST", "SITETYPE": "GOVERNMENT", "TOWNNAME": "NORTHFIELD", "ZIP": "05663", "GPSX": -72.656128, "GPSY": 44.147484, "MAIL": "93 S Main St", "STREETAD": "-", "WEBADDRESS": "www.brownpubliclibrary.org", "CITY": "Northfield", "COUNTY": "Washington", "TEL_NUM": "(802) 485-4621", "DIGINAME": "BrownPublic", "CONFIRMDAT": "2014\/12\/23", "CONFIRMPER": "Director - Brown Public" }, "geometry": { "type": "Point", "coordinates": [ -72.656127929928232, 44.147483824970053 ] } },
{ "type": "Feature", "properties": { "ESITEID": 179537.000000, "FSCS_ID": "VT0109", "LIBRARY": "North Hero Public", "GEONAMEID": 14099, "HOUSENUMBE": "3195", "CALCADDRES": 3195, "PRIMARYADD": "3195 US ROUTE 2", "SITETYPE": "EDUCATIONAL", "TOWNNAME": "NORTH HERO", "ZIP": "05474", "GPSX": -73.292587, "GPSY": 44.811802, "MAIL": "PO Box 187", "STREETAD": "3195 US Route 2", "WEBADDRESS": "northherovt.com\/library.php", "CITY": "North Hero", "COUNTY": "Grand Isle", "TEL_NUM": "(802) 372-5458", "DIGINAME": "NorthHeroPublic", "CONFIRMDAT": null, "CONFIRMPER": null }, "geometry": { "type": "Point", "coordinates": [ -73.292587280974757, 44.811801910324832 ] } },
{ "type": "Feature", "properties": { "ESITEID": 185689.000000, "FSCS_ID": "VT0112", "LIBRARY": "Pawlet Public", "GEONAMEID": 14750, "HOUSENUMBE": "141", "CALCADDRES": 141, "PRIMARYADD": "141 SCHOOL ST", "SITETYPE": "EDUCATIONAL", "TOWNNAME": "PAWLET", "ZIP": "05761", "GPSX": -73.179291, "GPSY": 43.345318, "MAIL": "PO Box 98", "STREETAD": "141 School St", "WEBADDRESS": "(none)", "CITY": "Pawlet", "COUNTY": "Rutland", "TEL_NUM": "(802) 325-3123", "DIGINAME": "PawletPublic", "CONFIRMDAT": null, "CONFIRMPER": null }, "geometry": { "type": "Point", "coordinates": [ -73.179290771016952, 43.345317839862986 ] } },
{ "type": "Feature", "properties": { "ESITEID": 187325.000000, "FSCS_ID": "VT0114", "LIBRARY": "Roger Clark Memorial", "GEONAMEID": 14948, "HOUSENUMBE": "40", "CALCADDRES": 40, "PRIMARYADD": "40 VILLAGE GRN", "SITETYPE": "GOVERNMENT", "TOWNNAME": "PITTSFIELD", "ZIP": "05762", "GPSX": -72.812389, "GPSY": 43.770609, "MAIL": "PO Box 743", "STREETAD": "40 Village Grn", "WEBADDRESS": "http:\/\/pittsfieldlibrary.com", "CITY": "Pittsfield", "COUNTY": "Rutland", "TEL_NUM": "(802) 746-4067", "DIGINAME": "RogerClarkMemorial", "CONFIRMDAT": null, "CONFIRMPER": null }, "geometry": { "type": "Point", "coordinates": [ -72.812388807817342, 43.77060874563368 ] } },
{ "type": "Feature", "properties": { "ESITEID": 188019.000000, "FSCS_ID": "VT0115", "LIBRARY": "Maclure", "GEONAMEID": 15053, "HOUSENUMBE": "840", "CALCADDRES": 840, "PRIMARYADD": "840 ARCH ST", "SITETYPE": "PUBLIC GATHERING", "TOWNNAME": "PITTSFORD", "ZIP": "05763", "GPSX": -73.026932, "GPSY": 43.706276, "MAIL": "PO Box 60", "STREETAD": "840 Arch St", "WEBADDRESS": "www.maclurelibrary.org", "CITY": "Pittsford", "COUNTY": "Rutland", "TEL_NUM": "(802) 483-2972", "DIGINAME": "Maclure", "CONFIRMDAT": null, "CONFIRMPER": null }, "geometry": { "type": "Point", "coordinates": [ -73.026931763409763, 43.706275940523284 ] } },
{ "type": "Feature", "properties": { "ESITEID": 188949.000000, "FSCS_ID": "VT0116", "LIBRARY": "Cutler Memorial", "GEONAMEID": 15164, "HOUSENUMBE": "151", "CALCADDRES": 151, "PRIMARYADD": "151 HIGH ST", "SITETYPE": "OTHER RESIDENTIAL", "TOWNNAME": "PLAINFIELD", "ZIP": "05667", "GPSX": -72.428658, "GPSY": 44.277701, "MAIL": "PO Box 186", "STREETAD": "151 High St", "WEBADDRESS": "www.cutlerlibrary.org", "CITY": "Plainfield", "COUNTY": "Washington", "TEL_NUM": "(802) 454-8504", "DIGINAME": "CutlerMemorial", "CONFIRMDAT": null, "CONFIRMPER": null }, "geometry": { "type": "Point", "coordinates": [ -72.428657680678484, 44.277700689499241 ] } },
{ "type": "Feature", "properties": { "ESITEID": 177187.000000, "FSCS_ID": "VT0107", "LIBRARY": "Goodrich Memorial", "GEONAMEID": 13816, "HOUSENUMBE": "202", "CALCADDRES": 202, "PRIMARYADD": "202 MAIN ST", "SITETYPE": "CULTURAL", "TOWNNAME": "NEWPORT CITY", "ZIP": "05855", "GPSX": -72.210190, "GPSY": 44.935787, "MAIL": "202 Main St", "STREETAD": "202 Main St", "WEBADDRESS": "www.goodrichlibrary.org", "CITY": "Newport", "COUNTY": "Orleans", "TEL_NUM": "(802) 334-7902", "DIGINAME": "GoodrichMemorial", "CONFIRMDAT": null, "CONFIRMPER": null }, "geometry": { "type": "Point", "coordinates": [ -72.210190211252282, 44.935786596252804 ] } },
{ "type": "Feature", "properties": { "ESITEID": 30726.000000, "FSCS_ID": "VT0020", "LIBRARY": "Brooks Memorial", "GEONAMEID": 30151, "HOUSENUMBE": "224", "CALCADDRES": 224, "PRIMARYADD": "224 MAIN ST", "SITETYPE": "CULTURAL", "TOWNNAME": "BRATTLEBORO", "ZIP": "05301", "GPSX": -72.559930, "GPSY": 42.855270, "MAIL": "224 Main St", "STREETAD": "-", "WEBADDRESS": "http:\/\/www.brooks.lib.vt.us", "CITY": "Brattleboro", "COUNTY": "Windham", "TEL_NUM": "(802) 254-5290", "DIGINAME": "BrooksMemorial", "CONFIRMDAT": "2014\/12\/23", "CONFIRMPER": "Jeanne Walsh - Brooks Memorial" }, "geometry": { "type": "Point", "coordinates": [ -72.559929999230675, 42.855270000205138 ] } },
{ "type": "Feature", "properties": { "ESITEID": 193651.000000, "FSCS_ID": "VT0120", "LIBRARY": "Solomon Wright Public", "GEONAMEID": 15621, "HOUSENUMBE": "97", "CALCADDRES": 97, "PRIMARYADD": "97 MAIN ST", "SITETYPE": "EDUCATIONAL", "TOWNNAME": "POWNAL", "ZIP": "05261", "GPSX": -73.241039, "GPSY": 42.767361, "MAIL": "PO Box 400", "STREETAD": "97 Main St", "WEBADDRESS": "www.solomonwrightlibrary.org", "CITY": "Pownal", "COUNTY": "Bennington", "TEL_NUM": "(802) 823-5400", "DIGINAME": "SolomonWright", "CONFIRMDAT": null, "CONFIRMPER": null }, "geometry": { "type": "Point", "coordinates": [ -73.241039027553398, 42.767360882841494 ] } },
{ "type": "Feature", "properties": { "ESITEID": 194439.000000, "FSCS_ID": "VT0121", "LIBRARY": "Proctor Free", "GEONAMEID": 15806, "HOUSENUMBE": "4", "CALCADDRES": 4, "PRIMARYADD": "4 MAIN ST", "SITETYPE": "EDUCATIONAL", "TOWNNAME": "PROCTOR", "ZIP": "05765", "GPSX": -73.032974, "GPSY": 43.661579, "MAIL": "4 Main St", "STREETAD": "-", "WEBADDRESS": "(none)", "CITY": "Proctor", "COUNTY": "Rutland", "TEL_NUM": "(802) 459-3539", "DIGINAME": "ProctorFree", "CONFIRMDAT": null, "CONFIRMPER": null }, "geometry": { "type": "Point", "coordinates": [ -73.03297424323253, 43.66157913254721 ] } },
{ "type": "Feature", "properties": { "ESITEID": 197038.000000, "FSCS_ID": "VT0123", "LIBRARY": "Kimball Public", "GEONAMEID": 16083, "HOUSENUMBE": "67", "CALCADDRES": 67, "PRIMARYADD": "67 N MAIN ST", "SITETYPE": "EDUCATIONAL", "TOWNNAME": "RANDOLPH", "ZIP": "05060", "GPSX": -72.665611, "GPSY": 43.925167, "MAIL": "67 N Main St", "STREETAD": "-", "WEBADDRESS": "www.KimballLibrary.org", "CITY": "Randolph", "COUNTY": "Orange", "TEL_NUM": "(802) 728-5073", "DIGINAME": "KimballPublic", "CONFIRMDAT": null, "CONFIRMPER": null }, "geometry": { "type": "Point", "coordinates": [ -72.665611266364863, 43.925167084306871 ] } },
{ "type": "Feature", "properties": { "ESITEID": 198514.000000, "FSCS_ID": "VT0124", "LIBRARY": "Reading Public", "GEONAMEID": 16240, "HOUSENUMBE": "717", "CALCADDRES": 717, "PRIMARYADD": "717 VT ROUTE 106", "SITETYPE": "EDUCATIONAL", "TOWNNAME": "READING", "ZIP": "05062", "GPSX": -72.537674, "GPSY": 43.454445, "MAIL": "PO Box 7", "STREETAD": "717 VT Route 106", "WEBADDRESS": "www.readinglibrary.org", "CITY": "Reading", "COUNTY": "Windsor", "TEL_NUM": "(802) 484-5588", "DIGINAME": "ReadingPublic", "CONFIRMDAT": null, "CONFIRMPER": null }, "geometry": { "type": "Point", "coordinates": [ -72.53767395119894, 43.454444884563244 ] } },
{ "type": "Feature", "properties": { "ESITEID": 198853.000000, "FSCS_ID": "VT0125", "LIBRARY": "Readsboro Community", "GEONAMEID": 16298, "HOUSENUMBE": "301", "CALCADDRES": 301, "PRIMARYADD": "301 PHELPS LN", "SITETYPE": "GOVERNMENT", "TOWNNAME": "READSBORO", "ZIP": "05350", "GPSX": -72.940575, "GPSY": 42.771786, "MAIL": "301 Phelps Ln", "STREETAD": "301 Phelps Ln", "WEBADDRESS": "www.readsborocommunitylibrary.wordpress.com", "CITY": "Readsboro", "COUNTY": "Bennington", "TEL_NUM": "(802) 423-5460", "DIGINAME": "ReadsboroCommunity", "CONFIRMDAT": null, "CONFIRMPER": null }, "geometry": { "type": "Point", "coordinates": [ -72.940574646029589, 42.771785736583944 ] } },
{ "type": "Feature", "properties": { "ESITEID": 263030.000000, "FSCS_ID": "VT0161", "LIBRARY": "Tunbridge Public", "GEONAMEID": 21163, "HOUSENUMBE": "289", "CALCADDRES": 289, "PRIMARYADD": "289 VT ROUTE 110", "SITETYPE": "CAMP", "TOWNNAME": "TUNBRIDGE", "ZIP": "05077", "GPSX": -72.492393, "GPSY": 43.889770, "MAIL": "PO Box 9", "STREETAD": "289 VT Route 110", "WEBADDRESS": "www.tunbridgelibrary.org", "CITY": "Tunbridge", "COUNTY": "Orange", "TEL_NUM": "(802) 889-9404", "DIGINAME": "TunbridgePublic", "CONFIRMDAT": null, "CONFIRMPER": null }, "geometry": { "type": "Point", "coordinates": [ -72.492393494526524, 43.88977050667782 ] } },
{ "type": "Feature", "properties": { "ESITEID": 9419.000000, "FSCS_ID": "VT0011", "LIBRARY": "Aldrich Public", "GEONAMEID": 1072, "HOUSENUMBE": "6", "CALCADDRES": 6, "PRIMARYADD": "6 WASHINGTON ST", "SITETYPE": "GOVERNMENT", "TOWNNAME": "BARRE CITY", "ZIP": "05641", "GPSX": -72.500871, "GPSY": 44.197641, "MAIL": "6 Washington St", "STREETAD": "-", "WEBADDRESS": "www.aldrichpubliclibrary.org", "CITY": "Barre", "COUNTY": "Washington", "TEL_NUM": "(802) 476-7550", "DIGINAME": "AldrichPublic", "CONFIRMDAT": "2014\/12\/23", "CONFIRMPER": "Nancy Pope - Aldrich Library" }, "geometry": { "type": "Point", "coordinates": [ -72.500871021434506, 44.197641403682539 ] } },
{ "type": "Feature", "properties": { "ESITEID": 200856.000000, "FSCS_ID": "VT0127", "LIBRARY": "Richmond Free", "GEONAMEID": 16485, "HOUSENUMBE": "201", "CALCADDRES": 201, "PRIMARYADD": "201 BRIDGE ST", "SITETYPE": "GOVERNMENT", "TOWNNAME": "RICHMOND", "ZIP": "05477", "GPSX": -72.994841, "GPSY": 44.403085, "MAIL": "PO Box 997", "STREETAD": "201 Bridge St", "WEBADDRESS": "www.richmondfreelibraryvt.org", "CITY": "Richmond", "COUNTY": "Chittenden", "TEL_NUM": "(802) 434-3036", "DIGINAME": "RichmondFree", "CONFIRMDAT": "2014\/12\/24", "CONFIRMPER": "Rebecca Mueller - Richmond Free" }, "geometry": { "type": "Point", "coordinates": [ -72.99484111903233, 44.403084965945787 ] } },
{ "type": "Feature", "properties": { "ESITEID": 202493.000000, "FSCS_ID": "VT0128", "LIBRARY": "Rochester Public", "GEONAMEID": 16666, "HOUSENUMBE": "22", "CALCADDRES": 22, "PRIMARYADD": "22 S MAIN ST", "SITETYPE": "LIBRARY", "TOWNNAME": "ROCHESTER", "ZIP": "05767", "GPSX": -72.808557, "GPSY": 43.874099, "MAIL": "PO Box 256", "STREETAD": "22 S Main St", "WEBADDRESS": "www.rochestervtpubliclibrary.com", "CITY": "Rochester", "COUNTY": "Windsor", "TEL_NUM": "(802) 767-3927", "DIGINAME": "RochesterPublic", "CONFIRMDAT": null, "CONFIRMPER": null }, "geometry": { "type": "Point", "coordinates": [ -72.808556914786564, 43.874098645451873 ] } },
{ "type": "Feature", "properties": { "ESITEID": 205406.000000, "FSCS_ID": "VT0130", "LIBRARY": "Roxbury Free", "GEONAMEID": 16882, "HOUSENUMBE": "1491", "CALCADDRES": 1491, "PRIMARYADD": "1491 ROXBURY RD", "SITETYPE": "GOVERNMENT", "TOWNNAME": "ROXBURY", "ZIP": "05669", "GPSX": -72.732909, "GPSY": 44.093404, "MAIL": "PO Box 95", "STREETAD": "1491 Roxbury Rd", "WEBADDRESS": "http:\/\/www.facebook.com\/pages\/Roxbury-Free-Library\/225492285010", "CITY": "Roxbury", "COUNTY": "Washington", "TEL_NUM": "(802) 485-6860", "DIGINAME": "RoxburyFree", "CONFIRMDAT": null, "CONFIRMPER": null }, "geometry": { "type": "Point", "coordinates": [ -72.732909481521887, 44.093404418396865 ] } },
{ "type": "Feature", "properties": { "ESITEID": 206888.000000, "FSCS_ID": "VT0131", "LIBRARY": "Royalton Memorial", "GEONAMEID": 16963, "HOUSENUMBE": "23", "CALCADDRES": 23, "PRIMARYADD": "23 ALEXANDER PL", "SITETYPE": "GOVERNMENT", "TOWNNAME": "ROYALTON", "ZIP": "05068", "GPSX": -72.519562, "GPSY": 43.818275, "MAIL": "PO Box 179", "STREETAD": "23 Alexander Pl", "WEBADDRESS": "www.royaltonlibrary.org", "CITY": "South Royalton", "COUNTY": "Windsor", "TEL_NUM": "(802) 763-7094", "DIGINAME": "RoyaltonMemorial", "CONFIRMDAT": null, "CONFIRMPER": null }, "geometry": { "type": "Point", "coordinates": [ -72.519561741117471, 43.818274974906068 ] } },
{ "type": "Feature", "properties": { "ESITEID": 210891.000000, "FSCS_ID": "VT0133", "LIBRARY": "Rutland Free", "GEONAMEID": 17228, "HOUSENUMBE": "10", "CALCADDRES": 10, "PRIMARYADD": "10 COURT ST", "SITETYPE": "PUBLIC GATHERING", "TOWNNAME": "RUTLAND CITY", "ZIP": "05701", "GPSX": -72.975258, "GPSY": 43.607235, "MAIL": "10 Court St", "STREETAD": "-", "WEBADDRESS": "rutlandfree.org", "CITY": "Rutland", "COUNTY": "Rutland", "TEL_NUM": "(802) 773-1860", "DIGINAME": "RutlandFree", "CONFIRMDAT": null, "CONFIRMPER": null }, "geometry": { "type": "Point", "coordinates": [ -72.975257873264752, 43.607234955805893 ] } },
{ "type": "Feature", "properties": { "ESITEID": 239321.000000, "FSCS_ID": "VT0137", "LIBRARY": "St. Albans Free", "GEONAMEID": 29137, "HOUSENUMBE": "11", "CALCADDRES": 11, "PRIMARYADD": "11 MAIDEN LN", "SITETYPE": "GOVERNMENT", "TOWNNAME": "SAINT ALBANS CITY", "ZIP": "05478", "GPSX": -73.081503, "GPSY": 44.812861, "MAIL": "11 Maiden Ln", "STREETAD": "-", "WEBADDRESS": "www.stalbansfreelibrary.org", "CITY": "St. Albans", "COUNTY": "Franklin", "TEL_NUM": "(802) 524-1507", "DIGINAME": "StAlbansFree", "CONFIRMDAT": null, "CONFIRMPER": null }, "geometry": { "type": "Point", "coordinates": [ -73.081503460851948, 44.812861386165899 ] } },
{ "type": "Feature", "properties": { "ESITEID": 127410.000000, "FSCS_ID": "VT0073", "LIBRARY": "Highgate Public", "GEONAMEID": 9777, "HOUSENUMBE": "17", "CALCADDRES": 17, "PRIMARYADD": "17 MILL HILL RD", "SITETYPE": "CULTURAL", "TOWNNAME": "HIGHGATE", "ZIP": "05459", "GPSX": -73.044677, "GPSY": 44.938298, "MAIL": "PO Box 76", "STREETAD": "17 Mill Hill Rd", "WEBADDRESS": "www.highgatelibrary.wordpress.com", "CITY": "Highgate", "COUNTY": "Franklin", "TEL_NUM": "(802) 868-3970", "DIGINAME": "HighgatePublic", "CONFIRMDAT": null, "CONFIRMPER": null }, "geometry": { "type": "Point", "coordinates": [ -73.044677344078551, 44.938298327554108 ] } },
{ "type": "Feature", "properties": { "ESITEID": 128944.000000, "FSCS_ID": "VT0074", "LIBRARY": "Carpenter Carse", "GEONAMEID": 9978, "HOUSENUMBE": "69", "CALCADDRES": 69, "PRIMARYADD": "69 BALLARDS CORNER RD", "SITETYPE": "CULTURAL", "TOWNNAME": "HINESBURG", "ZIP": "05461", "GPSX": -73.118271, "GPSY": 44.341713, "MAIL": "PO Box 127", "STREETAD": "69 Ballards Corner Rd", "WEBADDRESS": "www.carpentercarse.org", "CITY": "Hinesburg", "COUNTY": "Chittenden", "TEL_NUM": "(802) 482-2878", "DIGINAME": "CarpenterCarse", "CONFIRMDAT": null, "CONFIRMPER": null }, "geometry": { "type": "Point", "coordinates": [ -73.118270874586827, 44.341712952645139 ] } },
{ "type": "Feature", "properties": { "ESITEID": 132926.000000, "FSCS_ID": "VT0076", "LIBRARY": "Lanpher Memorial", "GEONAMEID": 10210, "HOUSENUMBE": "141", "CALCADDRES": 141, "PRIMARYADD": "141 MAIN ST", "SITETYPE": "CULTURAL", "TOWNNAME": "HYDE PARK", "ZIP": "05655", "GPSX": -72.617109, "GPSY": 44.593727, "MAIL": "PO Box 196", "STREETAD": "141 Main St", "WEBADDRESS": "lanpherlibrary.org", "CITY": "Hyde Park", "COUNTY": "Lamoille", "TEL_NUM": "(802) 888-4628", "DIGINAME": "LanpherMemorial", "CONFIRMDAT": null, "CONFIRMPER": null }, "geometry": { "type": "Point", "coordinates": [ -72.617108977199294, 44.593727305002353 ] } },
{ "type": "Feature", "properties": { "ESITEID": 270482.000000, "FSCS_ID": "VT0169", "LIBRARY": "Wardsboro Free Public", "GEONAMEID": 21781, "HOUSENUMBE": "170", "CALCADDRES": 170, "PRIMARYADD": "170 MAIN ST", "SITETYPE": "SINGLE FAMILY DWELLING", "TOWNNAME": "WARDSBORO", "ZIP": "05355", "GPSX": -72.789848, "GPSY": 43.043156, "MAIL": "PO Box 157", "STREETAD": "170 Main St", "WEBADDRESS": "wardsboropubliclibrary.org", "CITY": "Wardsboro", "COUNTY": "Windham", "TEL_NUM": "(802) 896-6988", "DIGINAME": "WardsboroFreePublic", "CONFIRMDAT": "2014\/12\/23", "CONFIRMPER": "Wardsboro Public" }, "geometry": { "type": "Point", "coordinates": [ -72.789848327347457, 43.04315567063982 ] } },
{ "type": "Feature", "properties": { "ESITEID": 131318.000000, "FSCS_ID": "VT0075", "LIBRARY": "Huntington Public", "GEONAMEID": 29462, "HOUSENUMBE": "2156", "CALCADDRES": 2156, "PRIMARYADD": "2156 MAIN RD", "SITETYPE": "CULTURAL", "TOWNNAME": "HUNTINGTON", "ZIP": "05462", "GPSX": -72.987895, "GPSY": 44.326541, "MAIL": "PO Box 98", "STREETAD": "2156 Main Rd", "WEBADDRESS": "huntingtonpubliclibrary.org", "CITY": "Huntington", "COUNTY": "Chittenden", "TEL_NUM": "(802) 434-4583", "DIGINAME": "HuntingtonPublic", "CONFIRMDAT": null, "CONFIRMPER": null }, "geometry": { "type": "Point", "coordinates": [ -72.987894734107115, 44.326541196034505 ] } },
{ "type": "Feature", "properties": { "ESITEID": 311856.000000, "FSCS_ID": "VT0083", "LIBRARY": "Lincoln", "GEONAMEID": 11020, "HOUSENUMBE": "222", "CALCADDRES": 274, "PRIMARYADD": "222 W RIVER RD", "SITETYPE": "CULTURAL", "TOWNNAME": "LINCOLN", "ZIP": "05443", "GPSX": -72.998823, "GPSY": 44.108894, "MAIL": "222 W River Rd", "STREETAD": "-", "WEBADDRESS": "www.lincolnlibraryvt.com", "CITY": "Lincoln", "COUNTY": "Addison", "TEL_NUM": "(802) 453-2665", "DIGINAME": "Lincoln", "CONFIRMDAT": null, "CONFIRMPER": null }, "geometry": { "type": "Point", "coordinates": [ -72.998823488002103, 44.108894124725751 ] } },
{ "type": "Feature", "properties": { "ESITEID": 246469.000000, "FSCS_ID": "VT0138", "LIBRARY": "St. Johnsbury Athenaeum", "GEONAMEID": 19942, "HOUSENUMBE": "1171", "CALCADDRES": 1171, "PRIMARYADD": "1171 MAIN ST", "SITETYPE": "EDUCATIONAL", "TOWNNAME": "SAINT JOHNSBURY", "ZIP": "05819", "GPSX": -72.021225, "GPSY": 44.418438, "MAIL": "1171 Main St", "STREETAD": "-", "WEBADDRESS": "www.stjathenaeum.org", "CITY": "St. Johnsbury", "COUNTY": "Caledonia", "TEL_NUM": "(802) 748-", "DIGINAME": "StJohnsburyAthenaeum", "CONFIRMDAT": null, "CONFIRMPER": null }, "geometry": { "type": "Point", "coordinates": [ -72.021224975469792, 44.418437958854724 ] } },
{ "type": "Feature", "properties": { "ESITEID": 219418.000000, "FSCS_ID": "VT0139", "LIBRARY": "Baxter Memorial", "GEONAMEID": 18045, "HOUSENUMBE": "5114", "CALCADDRES": 5114, "PRIMARYADD": "5114 VT ROUTE 14", "SITETYPE": "EDUCATIONAL", "TOWNNAME": "SHARON", "ZIP": "05068", "GPSX": -72.456215, "GPSY": 43.783920, "MAIL": "PO Box 87", "STREETAD": "5114 VT Route 14", "WEBADDRESS": "(none)", "CITY": "Sharon", "COUNTY": "Windsor", "TEL_NUM": "(802) 763-2875", "DIGINAME": "BaxterMemorial", "CONFIRMDAT": null, "CONFIRMPER": null }, "geometry": { "type": "Point", "coordinates": [ -72.456214904839044, 43.783920287553698 ] } },
{ "type": "Feature", "properties": { "ESITEID": 221955.000000, "FSCS_ID": "VT0140", "LIBRARY": "Pierson", "GEONAMEID": 18220, "HOUSENUMBE": "5376", "CALCADDRES": 5376, "PRIMARYADD": "5376 SHELBURNE RD", "SITETYPE": "GOVERNMENT", "TOWNNAME": "SHELBURNE", "ZIP": "05482", "GPSX": -73.228754, "GPSY": 44.379694, "MAIL": "5376 Shelburne Rd", "STREETAD": "-", "WEBADDRESS": "www.PiersonLibrary.org", "CITY": "Shelburne", "COUNTY": "Chittenden", "TEL_NUM": "(802) 985-5124", "DIGINAME": "Pierson", "CONFIRMDAT": null, "CONFIRMPER": null }, "geometry": { "type": "Point", "coordinates": [ -73.228754474637498, 44.37969385987374 ] } },
{ "type": "Feature", "properties": { "ESITEID": 196011.000000, "FSCS_ID": "VT0122", "LIBRARY": "Putney Public", "GEONAMEID": 15910, "HOUSENUMBE": "55", "CALCADDRES": 55, "PRIMARYADD": "55 MAIN ST", "SITETYPE": "CULTURAL", "TOWNNAME": "PUTNEY", "ZIP": "05301", "GPSX": -72.522777, "GPSY": 42.969578, "MAIL": "55 Main St", "STREETAD": "55 Main St", "WEBADDRESS": "http:\/\/home.svcable.net\/putpub", "CITY": "Putney", "COUNTY": "Windham", "TEL_NUM": "(802) 387-4407", "DIGINAME": "PutneyPublic", "CONFIRMDAT": null, "CONFIRMPER": null }, "geometry": { "type": "Point", "coordinates": [ -72.522777321513885, 42.969578436560795 ] } },
{ "type": "Feature", "properties": { "ESITEID": 80991.000000, "FSCS_ID": "VT0046", "LIBRARY": "Pope Memorial", "GEONAMEID": 6099, "HOUSENUMBE": "121", "CALCADDRES": 121, "PRIMARYADD": "121 PARK ST", "SITETYPE": "CULTURAL", "TOWNNAME": "DANVILLE", "ZIP": "05873", "GPSX": -72.140977, "GPSY": 44.411084, "MAIL": "PO Box 260", "STREETAD": "121 Park St", "WEBADDRESS": "popememoriallibrary.org", "CITY": "Danville", "COUNTY": "Caledonia", "TEL_NUM": "(802) 684-2256", "DIGINAME": "PopeMemorial", "CONFIRMDAT": null, "CONFIRMPER": null }, "geometry": { "type": "Point", "coordinates": [ -72.140976643586868, 44.411084221425718 ] } },
{ "type": "Feature", "properties": { "ESITEID": 59044.000000, "FSCS_ID": "VT0032", "LIBRARY": "Alice M. Ward Memorial", "GEONAMEID": 4099, "HOUSENUMBE": "27", "CALCADDRES": 27, "PRIMARYADD": "27 PARK ST", "SITETYPE": "CULTURAL", "TOWNNAME": "CANAAN", "ZIP": "05903", "GPSX": -71.539427, "GPSY": 44.995766, "MAIL": "PO Box 134", "STREETAD": "27 Park St", "WEBADDRESS": "http:\/\/alicewardmemoriallibrary.wordpress.com\/", "CITY": "Canaan", "COUNTY": "Essex", "TEL_NUM": "(802) 266-7135", "DIGINAME": "AliceMWard", "CONFIRMDAT": null, "CONFIRMPER": null }, "geometry": { "type": "Point", "coordinates": [ -71.539427421925694, 44.995765706552653 ] } },
{ "type": "Feature", "properties": { "ESITEID": 272816.000000, "FSCS_ID": "VT0171", "LIBRARY": "Calef Memorial", "GEONAMEID": 22034, "HOUSENUMBE": "2964", "CALCADDRES": 2964, "PRIMARYADD": "2964 VT ROUTE 110", "SITETYPE": "OTHER", "TOWNNAME": "WASHINGTON", "ZIP": "05675", "GPSX": -72.433449, "GPSY": 44.107651, "MAIL": "PO Box 141", "STREETAD": "2964 VT Route 110", "WEBADDRESS": "www.caleflibrary.wordpress.com", "CITY": "Washington", "COUNTY": "Orange", "TEL_NUM": "(802) 883-2343", "DIGINAME": "CalefMemorial", "CONFIRMDAT": null, "CONFIRMPER": null }, "geometry": { "type": "Point", "coordinates": [ -72.433448791542176, 44.107650756348633 ] } },
{ "type": "Feature", "properties": { "ESITEID": 274773.000000, "FSCS_ID": "VT0172", "LIBRARY": "Waterbury Public", "GEONAMEID": 22198, "HOUSENUMBE": "28", "CALCADDRES": 28, "PRIMARYADD": "28 N MAIN ST", "SITETYPE": "GOVERNMENT", "TOWNNAME": "WATERBURY", "ZIP": "05676", "GPSX": -72.758598, "GPSY": 44.339783, "MAIL": "28 N Main St", "STREETAD": "-", "WEBADDRESS": "www.waterburypubliclibrary.com", "CITY": "Waterbury", "COUNTY": "Washington", "TEL_NUM": "(802) 244-7036", "DIGINAME": "WaterburyPublic", "CONFIRMDAT": "2014\/12\/23", "CONFIRMPER": "Mary Kasamatsu - Waterbury Public" }, "geometry": { "type": "Point", "coordinates": [ -72.758598327215907, 44.339782715294497 ] } },
{ "type": "Feature", "properties": { "ESITEID": 276744.000000, "FSCS_ID": "VT0175", "LIBRARY": "Weathersfield Proctor", "GEONAMEID": 22487, "HOUSENUMBE": "5181", "CALCADDRES": 5181, "PRIMARYADD": "5181 US ROUTE 5", "SITETYPE": "GOVERNMENT", "TOWNNAME": "WEATHERSFIELD", "ZIP": "05089", "GPSX": -72.407219, "GPSY": 43.407093, "MAIL": "PO Box 519", "STREETAD": "5181 US Route 5", "WEBADDRESS": "http:\/\/weathersfieldproctorlibrary.org", "CITY": "Ascutney", "COUNTY": "Windsor", "TEL_NUM": "(802) 674-2863", "DIGINAME": "WeathersfieldPublic", "CONFIRMDAT": "2014\/12\/23", "CONFIRMPER": "Nancy Tusinski - Weathersfield Public" }, "geometry": { "type": "Point", "coordinates": [ -72.407218932742211, 43.407093048267555 ] } },
{ "type": "Feature", "properties": { "ESITEID": 276182.000000, "FSCS_ID": "VT0177", "LIBRARY": "Waterville Town", "GEONAMEID": 22377, "HOUSENUMBE": "850", "CALCADDRES": 850, "PRIMARYADD": "850 VT ROUTE 109", "SITETYPE": "GOVERNMENT", "TOWNNAME": "WATERVILLE", "ZIP": "05492", "GPSX": -72.766244, "GPSY": 44.693377, "MAIL": "1380 Lapland Rd", "STREETAD": "850 VT Route 109", "WEBADDRESS": "(none)", "CITY": "Waterville", "COUNTY": "Lamoille", "TEL_NUM": "98", "DIGINAME": "WatervilleTown", "CONFIRMDAT": null, "CONFIRMPER": null }, "geometry": { "type": "Point", "coordinates": [ -72.766244048422422, 44.693377371106408 ] } },
{ "type": "Feature", "properties": { "ESITEID": 281759.000000, "FSCS_ID": "VT0179", "LIBRARY": "Westford Public", "GEONAMEID": 29384, "HOUSENUMBE": "1717", "CALCADDRES": 1717, "PRIMARYADD": "1717 VT ROUTE 128", "SITETYPE": "GOVERNMENT", "TOWNNAME": "WESTFORD", "ZIP": "05494", "GPSX": -73.011380, "GPSY": 44.612124, "MAIL": "PO Box 86", "STREETAD": "1717 VT Route 128", "WEBADDRESS": "http:\/\/westfordpubliclibrary.org", "CITY": "Westford", "COUNTY": "Chittenden", "TEL_NUM": "(802) 878-5639", "DIGINAME": "WestfordPublic", "CONFIRMDAT": null, "CONFIRMPER": null }, "geometry": { "type": "Point", "coordinates": [ -73.011379912344367, 44.612124112800181 ] } },
{ "type": "Feature", "properties": { "ESITEID": 283325.000000, "FSCS_ID": "VT0180", "LIBRARY": "Butterfield", "GEONAMEID": 22876, "HOUSENUMBE": "3534", "CALCADDRES": 3534, "PRIMARYADD": "3534 US ROUTE 5", "SITETYPE": "GOVERNMENT", "TOWNNAME": "WESTMINSTER", "ZIP": "05346", "GPSX": -72.458763, "GPSY": 43.067242, "MAIL": "PO Box 123", "STREETAD": "3534 US Route 5", "WEBADDRESS": "(none)", "CITY": "Westminster", "COUNTY": "Windham", "TEL_NUM": "(802) 722-4891", "DIGINAME": "Butterfield", "CONFIRMDAT": null, "CONFIRMPER": null }, "geometry": { "type": "Point", "coordinates": [ -72.458763122165792, 43.067241669379833 ] } },
{ "type": "Feature", "properties": { "ESITEID": 283383.000000, "FSCS_ID": "VT0181", "LIBRARY": "Westminster West Public", "GEONAMEID": 22877, "HOUSENUMBE": "3409", "CALCADDRES": 3409, "PRIMARYADD": "3409 WESTMINSTER WEST RD", "SITETYPE": "GOVERNMENT", "TOWNNAME": "WESTMINSTER", "ZIP": "05346", "GPSX": -72.541428, "GPSY": 43.064796, "MAIL": "3409 Westminster West Rd", "STREETAD": "-", "WEBADDRESS": "westwestlibrary.org", "CITY": "Westminster West", "COUNTY": "Windham", "TEL_NUM": "(802) 387-4682", "DIGINAME": "WestminsterWest", "CONFIRMDAT": null, "CONFIRMPER": null }, "geometry": { "type": "Point", "coordinates": [ -72.541427612742893, 43.064796447366895 ] } },
{ "type": "Feature", "properties": { "ESITEID": 78170.000000, "FSCS_ID": "VT0042", "LIBRARY": "Cornwall Free Public", "GEONAMEID": 5786, "HOUSENUMBE": "2629", "CALCADDRES": 2629, "PRIMARYADD": "2629 VT ROUTE 30", "SITETYPE": "GOVERNMENT", "TOWNNAME": "CORNWALL", "ZIP": "05753", "GPSX": -73.209473, "GPSY": 43.961288, "MAIL": "2629 VT Route 30", "STREETAD": "-", "WEBADDRESS": "cornwallvt.com", "CITY": "Cornwall", "COUNTY": "Addison", "TEL_NUM": "(802) 462-3615", "DIGINAME": "CornwallFree", "CONFIRMDAT": null, "CONFIRMPER": null }, "geometry": { "type": "Point", "coordinates": [ -73.209472656788193, 43.961288452631202 ] } },
{ "type": "Feature", "properties": { "ESITEID": 79098.000000, "FSCS_ID": "VT0043", "LIBRARY": "Craftsbury Public", "GEONAMEID": 5928, "HOUSENUMBE": "7", "CALCADDRES": 7, "PRIMARYADD": "7 CHURCH LN", "SITETYPE": "HOUSE OF WORSHIP", "TOWNNAME": "CRAFTSBURY", "ZIP": "05826", "GPSX": -72.383797, "GPSY": 44.654259, "MAIL": "PO Box 74", "STREETAD": "12 Church Ln", "WEBADDRESS": "www.craftsburypubliclibrary.org", "CITY": "Craftsbury Common", "COUNTY": "Orleans", "TEL_NUM": "(802) 586-9683", "DIGINAME": "CraftsburyPublic", "CONFIRMDAT": null, "CONFIRMPER": null }, "geometry": { "type": "Point", "coordinates": [ -72.383796690597151, 44.654258727448379 ] } },
{ "type": "Feature", "properties": { "ESITEID": 81716.000000, "FSCS_ID": "VT0049", "LIBRARY": "Haskell Free", "GEONAMEID": 6203, "HOUSENUMBE": "93", "CALCADDRES": 93, "PRIMARYADD": "93 CASWELL AVE", "SITETYPE": "GOVERNMENT", "TOWNNAME": "DERBY", "ZIP": "05830", "GPSX": -72.097669, "GPSY": 45.005734, "MAIL": "PO Box 337", "STREETAD": "93 Caswell Ave", "WEBADDRESS": "http:\/\/haskellopera.com", "CITY": "Derby Line", "COUNTY": "Orleans", "TEL_NUM": "(802) 873-3022", "DIGINAME": "HaskellFree", "CONFIRMDAT": null, "CONFIRMPER": null }, "geometry": { "type": "Point", "coordinates": [ -72.097668745095007, 45.005734104911504 ] } },
{ "type": "Feature", "properties": { "ESITEID": 86840.000000, "FSCS_ID": "VT0051", "LIBRARY": "Dover Free", "GEONAMEID": 31534, "HOUSENUMBE": "22", "CALCADDRES": 22, "PRIMARYADD": "22 HOLLAND RD", "SITETYPE": "EDUCATIONAL", "TOWNNAME": "DOVER", "ZIP": "05341", "GPSX": -72.802811, "GPSY": 42.944490, "MAIL": "22 Holland Rd", "STREETAD": "22 Holland Rd", "WEBADDRESS": "www.doverfreelibrary1913.org", "CITY": "East Dover", "COUNTY": "Windham", "TEL_NUM": "(802) 348-7488", "DIGINAME": "DoverFree", "CONFIRMDAT": null, "CONFIRMPER": null }, "geometry": { "type": "Point", "coordinates": [ -72.802811207749642, 42.944489626101706 ] } },
{ "type": "Feature", "properties": { "ESITEID": 93624.000000, "FSCS_ID": "VT0052", "LIBRARY": "Enosburgh Public", "GEONAMEID": 6890, "HOUSENUMBE": "241", "CALCADDRES": 241, "PRIMARYADD": "241 MAIN ST", "SITETYPE": "GOVERNMENT", "TOWNNAME": "ENOSBURG", "ZIP": "05450", "GPSX": -72.806358, "GPSY": 44.906235, "MAIL": "PO Box 206", "STREETAD": "241 Main St", "WEBADDRESS": "http:\/\/www.enosburghlibrary.org", "CITY": "Enosburg Falls", "COUNTY": "Franklin", "TEL_NUM": "(802) 933-2328", "DIGINAME": "EnosburghPublic", "CONFIRMDAT": null, "CONFIRMPER": null }, "geometry": { "type": "Point", "coordinates": [ -72.806358336994279, 44.906234742042201 ] } },
{ "type": "Feature", "properties": { "ESITEID": 103939.000000, "FSCS_ID": "VT0055", "LIBRARY": "Fairfax Community", "GEONAMEID": 29592, "HOUSENUMBE": "75", "CALCADDRES": 75, "PRIMARYADD": "75 HUNT ST", "SITETYPE": "EDUCATIONAL", "TOWNNAME": "FAIRFAX", "ZIP": "05454", "GPSX": -73.013514, "GPSY": 44.663446, "MAIL": "75 Hunt St", "STREETAD": "Library located at Bellows Free Academy", "WEBADDRESS": "www.fairfaxvtlibrary.org", "CITY": "Fairfax", "COUNTY": "Franklin", "TEL_NUM": "(802) 849-2420", "DIGINAME": "FairfaxCommunity", "CONFIRMDAT": "2014\/12\/23", "CONFIRMPER": "Debbie Landauer - Fairfax Public" }, "geometry": { "type": "Point", "coordinates": [ -73.013513808515015, 44.66344617968803 ] } },
{ "type": "Feature", "properties": { "ESITEID": 104905.000000, "FSCS_ID": "VT0056", "LIBRARY": "Bent Northrup Memorial", "GEONAMEID": 7498, "HOUSENUMBE": "57", "CALCADDRES": 57, "PRIMARYADD": "57 PARK ST", "SITETYPE": "EDUCATIONAL", "TOWNNAME": "FAIRFIELD", "ZIP": "05448", "GPSX": -72.947922, "GPSY": 44.800510, "MAIL": "164 Park St", "STREETAD": "Intersection of Rt 36 & North Rd", "WEBADDRESS": "www.bentnorthrop.org", "CITY": "Fairfield", "COUNTY": "Franklin", "TEL_NUM": "(802) 827-3945", "DIGINAME": "BentNorthrup", "CONFIRMDAT": null, "CONFIRMPER": null }, "geometry": { "type": "Point", "coordinates": [ -72.947921753970533, 44.800510406401251 ] } },
{ "type": "Feature", "properties": { "ESITEID": 105423.000000, "FSCS_ID": "VT0058", "LIBRARY": "Fairlee Public", "GEONAMEID": 7585, "HOUSENUMBE": "221", "CALCADDRES": 221, "PRIMARYADD": "221 US ROUTE 5 N", "SITETYPE": "GOVERNMENT", "TOWNNAME": "FAIRLEE", "ZIP": "05045", "GPSX": -72.146119, "GPSY": 43.906136, "MAIL": "PO Box 125", "STREETAD": "221 US Route 5 N", "WEBADDRESS": "www.fairleelibrary.com", "CITY": "Fairlee", "COUNTY": "Orange", "TEL_NUM": "(802) 333-4716", "DIGINAME": "FairleePublic", "CONFIRMDAT": null, "CONFIRMPER": null }, "geometry": { "type": "Point", "coordinates": [ -72.146118669082384, 43.906136414788257 ] } },
{ "type": "Feature", "properties": { "ESITEID": 109378.000000, "FSCS_ID": "VT0059", "LIBRARY": "Haston", "GEONAMEID": 25207, "HOUSENUMBE": "5167", "CALCADDRES": 5167, "PRIMARYADD": "5167 MAIN ST", "SITETYPE": "GOVERNMENT", "TOWNNAME": "FRANKLIN", "ZIP": "05457", "GPSX": -72.915787, "GPSY": 44.981506, "MAIL": "PO Box 83", "STREETAD": "5167 Main St", "WEBADDRESS": "hastonlibrary.org", "CITY": "Franklin", "COUNTY": "Franklin", "TEL_NUM": "(802) 285-6505", "DIGINAME": "Haston", "CONFIRMDAT": null, "CONFIRMPER": null }, "geometry": { "type": "Point", "coordinates": [ -72.915786743694397, 44.981506347506595 ] } },
{ "type": "Feature", "properties": { "ESITEID": 110777.000000, "FSCS_ID": "VT0060", "LIBRARY": "Georgia Public", "GEONAMEID": 8057, "HOUSENUMBE": "1697", "CALCADDRES": 1697, "PRIMARYADD": "1697 ETHAN ALLEN HWY", "SITETYPE": "GOVERNMENT", "TOWNNAME": "GEORGIA", "ZIP": "05478", "GPSX": -73.105449, "GPSY": 44.703008, "MAIL": "1697 Ethan Allen Hwy", "STREETAD": "100 feet north of exit 18 on I-89 S", "WEBADDRESS": "www.georgia.lib.vt.us", "CITY": "Fairfax", "COUNTY": "Franklin", "TEL_NUM": "(802) 524-4643", "DIGINAME": "GeorgiaPublic", "CONFIRMDAT": null, "CONFIRMPER": null }, "geometry": { "type": "Point", "coordinates": [ -73.105448566356472, 44.703008054460099 ] } },
{ "type": "Feature", "properties": { "ESITEID": 111916.000000, "FSCS_ID": "VT0061", "LIBRARY": "Glover Public", "GEONAMEID": 8146, "HOUSENUMBE": "51", "CALCADDRES": 51, "PRIMARYADD": "51 BEAN HILL RD", "SITETYPE": "GOVERNMENT", "TOWNNAME": "GLOVER", "ZIP": "05839", "GPSX": -72.188042, "GPSY": 44.707020, "MAIL": "51 Bean Hill Rd", "STREETAD": "Shared building with Town Clerk", "WEBADDRESS": "gloverlibrary.org", "CITY": "Glover", "COUNTY": "Orleans", "TEL_NUM": "(802) 525-4365", "DIGINAME": "GloverPublic", "CONFIRMDAT": null, "CONFIRMPER": null }, "geometry": { "type": "Point", "coordinates": [ -72.188041686289921, 44.707019805589191 ] } },
{ "type": "Feature", "properties": { "ESITEID": 113061.000000, "FSCS_ID": "VT0062", "LIBRARY": "Grafton Public", "GEONAMEID": 8365, "HOUSENUMBE": "204", "CALCADDRES": 204, "PRIMARYADD": "204 MAIN ST", "SITETYPE": "PUBLIC GATHERING", "TOWNNAME": "GRAFTON", "ZIP": "05146", "GPSX": -72.607208, "GPSY": 43.171761, "MAIL": "PO Box 129", "STREETAD": "204 Main St", "WEBADDRESS": "www.graftonpubliclibrary.org", "CITY": "Grafton", "COUNTY": "Windham", "TEL_NUM": "(802) 843-2404", "DIGINAME": "GraftonPublic", "CONFIRMDAT": null, "CONFIRMPER": null }, "geometry": { "type": "Point", "coordinates": [ -72.607208252025572, 43.171760559183241 ] } },
{ "type": "Feature", "properties": { "ESITEID": 113767.000000, "FSCS_ID": "VT0063", "LIBRARY": "Grand Isle Free", "GEONAMEID": 8432, "HOUSENUMBE": "10", "CALCADDRES": 10, "PRIMARYADD": "10 HYDE RD", "SITETYPE": "EDUCATIONAL", "TOWNNAME": "GRAND ISLE", "ZIP": "05458", "GPSX": -73.295151, "GPSY": 44.722481, "MAIL": "10 Hyde Rd", "STREETAD": "-", "WEBADDRESS": "grandislefreelibraryvt.wordpress.com", "CITY": "Grand Isle", "COUNTY": "Grand Isle", "TEL_NUM": "(802) 372-4797", "DIGINAME": "GrandIsleFree", "CONFIRMDAT": null, "CONFIRMPER": null }, "geometry": { "type": "Point", "coordinates": [ -73.295150756260938, 44.722480773924801 ] } },
{ "type": "Feature", "properties": { "ESITEID": 117222.000000, "FSCS_ID": "VT0068", "LIBRARY": "Guilford Free", "GEONAMEID": 8755, "HOUSENUMBE": "4024", "CALCADDRES": 4024, "PRIMARYADD": "4024 GUILFORD CENTER RD", "SITETYPE": "EDUCATIONAL", "TOWNNAME": "GUILFORD", "ZIP": "05301", "GPSX": -72.624428, "GPSY": 42.792267, "MAIL": "4024 Guilford Center Rd", "STREETAD": "-", "WEBADDRESS": "http:\/\/homepages.sover.net\/~wilken\/guilfordlibrary\/", "CITY": "Guilford", "COUNTY": "Windham", "TEL_NUM": "(802) 257-4603", "DIGINAME": "GuilfordFree", "CONFIRMDAT": null, "CONFIRMPER": null }, "geometry": { "type": "Point", "coordinates": [ -72.624427795713942, 42.79226684516928 ] } },
{ "type": "Feature", "properties": { "ESITEID": 19423.000000, "FSCS_ID": "VT0014", "LIBRARY": "Bennington Free", "GEONAMEID": 2037, "HOUSENUMBE": "101", "CALCADDRES": 0, "PRIMARYADD": "101 SILVER ST", "SITETYPE": "CULTURAL", "TOWNNAME": "BENNINGTON", "ZIP": "05201", "GPSX": -73.193680, "GPSY": 42.877831, "MAIL": "101 Silver St", "STREETAD": "-", "WEBADDRESS": "http:\/\/benningtonfreelibrary.org", "CITY": "Bennington", "COUNTY": "Bennington", "TEL_NUM": "(802) 442-9051", "DIGINAME": "BenningtonFree", "CONFIRMDAT": "2014\/12\/23", "CONFIRMPER": "Karson Kiesing - Bennington Free" }, "geometry": { "type": "Point", "coordinates": [ -73.193679809208689, 42.877830505773737 ] } },
{ "type": "Feature", "properties": { "ESITEID": 284892.000000, "FSCS_ID": "VT0182", "LIBRARY": "Wilder Memorial", "GEONAMEID": 23187, "HOUSENUMBE": "24", "CALCADDRES": 24, "PRIMARYADD": "24 LAWRENCE HILL RD", "SITETYPE": "GOVERNMENT", "TOWNNAME": "WESTON", "ZIP": "05161", "GPSX": -72.794716, "GPSY": 43.291470, "MAIL": "PO Box 38", "STREETAD": "24 Lawrence Hill Rd", "WEBADDRESS": "(none)", "CITY": "Weston", "COUNTY": "Windsor", "TEL_NUM": "(802) 824-4307", "DIGINAME": "WilderMemorial", "CONFIRMDAT": "2014\/12\/27", "CONFIRMPER": "Kerri MacLaury - Wilder Memorial" }, "geometry": { "type": "Point", "coordinates": [ -72.794715879889679, 43.291469573309982 ] } },
{ "type": "Feature", "properties": { "ESITEID": 279673.000000, "FSCS_ID": "VT0183", "LIBRARY": "West Rutland Public", "GEONAMEID": 22701, "HOUSENUMBE": "595", "CALCADDRES": 595, "PRIMARYADD": "595 MAIN ST", "SITETYPE": "PUBLIC GATHERING", "TOWNNAME": "WEST RUTLAND", "ZIP": "05777", "GPSX": -73.049125, "GPSY": 43.594797, "MAIL": "PO Box 66", "STREETAD": "595 Main St", "WEBADDRESS": "westrutlandpubliclibrary@weebly.com", "CITY": "West Rutland", "COUNTY": "Rutland", "TEL_NUM": "(802) 438-2964", "DIGINAME": "WestRutlandPublic", "CONFIRMDAT": null, "CONFIRMPER": null }, "geometry": { "type": "Point", "coordinates": [ -73.049124666068522, 43.594796633939488 ] } },
{ "type": "Feature", "properties": { "ESITEID": 280539.000000, "FSCS_ID": "VT0184", "LIBRARY": "Mary L. Blood Memorial", "GEONAMEID": 22810, "HOUSENUMBE": "41", "CALCADDRES": 41, "PRIMARYADD": "41 BROWNSVILLE HARTLAND RD", "SITETYPE": "EDUCATIONAL", "TOWNNAME": "WEST WINDSOR", "ZIP": "05037", "GPSX": -72.471428, "GPSY": 43.468433, "MAIL": "PO Box 468", "STREETAD": "41 Brownsville Hartland Rd", "WEBADDRESS": "marybloodlibrary.wordpress.com", "CITY": "Brownsville", "COUNTY": "Windsor", "TEL_NUM": "(802) 484-7205", "DIGINAME": "MaryLBloodMemorial", "CONFIRMDAT": null, "CONFIRMPER": null }, "geometry": { "type": "Point", "coordinates": [ -72.471427917346432, 43.468433381142006 ] } },
{ "type": "Feature", "properties": { "ESITEID": 286464.000000, "FSCS_ID": "VT0186", "LIBRARY": "Whitingham Free Public", "GEONAMEID": 23441, "HOUSENUMBE": "2948", "CALCADDRES": 2948, "PRIMARYADD": "2948 VT ROUTE 100", "SITETYPE": "GOVERNMENT", "TOWNNAME": "WHITINGHAM", "ZIP": "05361", "GPSX": -72.823039, "GPSY": 42.798429, "MAIL": "PO Box 500", "STREETAD": "2948 VT Route 100", "WEBADDRESS": "www.readwithus.org", "CITY": "Jacksonville", "COUNTY": "Windham", "TEL_NUM": "(802) 368-7506", "DIGINAME": "WhitinghamFree", "CONFIRMDAT": null, "CONFIRMPER": null }, "geometry": { "type": "Point", "coordinates": [ -72.823039261404546, 42.798428651879597 ] } },
{ "type": "Feature", "properties": { "ESITEID": 294275.000000, "FSCS_ID": "VT0189", "LIBRARY": "Pettee Memorial", "GEONAMEID": 23974, "HOUSENUMBE": "16", "CALCADDRES": 16, "PRIMARYADD": "16 S MAIN ST", "SITETYPE": "EDUCATIONAL", "TOWNNAME": "WILMINGTON", "ZIP": "05363", "GPSX": -72.871925, "GPSY": 42.867737, "MAIL": "PO Box 896", "STREETAD": "16 S Main St", "WEBADDRESS": "petteelibrary.org", "CITY": "Wilmington", "COUNTY": "Windham", "TEL_NUM": "(802) 464-8557", "DIGINAME": "PetteeMemorial", "CONFIRMDAT": null, "CONFIRMPER": null }, "geometry": { "type": "Point", "coordinates": [ -72.871892603083865, 42.867748995527798 ] } },
{ "type": "Feature", "properties": { "ESITEID": 295116.000000, "FSCS_ID": "VT0190", "LIBRARY": "Windham Town", "GEONAMEID": 24094, "HOUSENUMBE": "26", "CALCADDRES": 26, "PRIMARYADD": "26 HARRINGTON RD", "SITETYPE": "HOUSE OF WORSHIP", "TOWNNAME": "WINDHAM", "ZIP": "05359", "GPSX": -72.725830, "GPSY": 43.180637, "MAIL": "c\/o 7071 Windham Hill Rd", "STREETAD": "26 Harrington Rd", "WEBADDRESS": "windhamtownlibrary.com", "CITY": "Windham", "COUNTY": "Windham", "TEL_NUM": "(802) 875-2244", "DIGINAME": "WindhamTown", "CONFIRMDAT": null, "CONFIRMPER": null }, "geometry": { "type": "Point", "coordinates": [ -72.725830077304309, 43.180637359718155 ] } },
{ "type": "Feature", "properties": { "ESITEID": 143711.000000, "FSCS_ID": "VT0086", "LIBRARY": "Fletcher Memorial", "GEONAMEID": 32075, "HOUSENUMBE": "88", "CALCADDRES": 88, "PRIMARYADD": "88 MAIN ST", "SITETYPE": "CULTURAL", "TOWNNAME": "LUDLOW", "ZIP": "05149", "GPSX": -72.694587, "GPSY": 43.396662, "MAIL": "88 Main St", "STREETAD": "-", "WEBADDRESS": "www.fmlnew.org", "CITY": "Ludlow", "COUNTY": "Windsor", "TEL_NUM": "(802) 228-8921", "DIGINAME": "FletcherMemorial", "CONFIRMDAT": null, "CONFIRMPER": null }, "geometry": { "type": "Point", "coordinates": [ -72.694586668062726, 43.396662349436795 ] } },
{ "type": "Feature", "properties": { "ESITEID": 295874.000000, "FSCS_ID": "VT0191", "LIBRARY": "Windsor Public", "GEONAMEID": 24240, "HOUSENUMBE": "43", "CALCADDRES": 43, "PRIMARYADD": "43 STATE ST", "SITETYPE": "OTHER", "TOWNNAME": "WINDSOR", "ZIP": "05089", "GPSX": -72.388512, "GPSY": 43.480293, "MAIL": "43 State St", "STREETAD": "-", "WEBADDRESS": "windsorlibrary.org", "CITY": "Windsor", "COUNTY": "Windsor", "TEL_NUM": "(802) 674-2556", "DIGINAME": "WindsorPublic", "CONFIRMDAT": null, "CONFIRMPER": null }, "geometry": { "type": "Point", "coordinates": [ -72.388511658631401, 43.480293274626874 ] } },
{ "type": "Feature", "properties": { "ESITEID": 297622.000000, "FSCS_ID": "VT0192", "LIBRARY": "Winhall Memorial", "GEONAMEID": 24328, "HOUSENUMBE": "2", "CALCADDRES": 2, "PRIMARYADD": "2 LOWER TAYLOR HILL RD", "SITETYPE": "EDUCATIONAL", "TOWNNAME": "WINHALL", "ZIP": "05340", "GPSX": -72.896942, "GPSY": 43.146053, "MAIL": "PO Box 738", "STREETAD": "2 Lower Taylor Hill Rd", "WEBADDRESS": "www.winhalllibrary.net", "CITY": "Bondville", "COUNTY": "Bennington", "TEL_NUM": "(802) 297-9741", "DIGINAME": "WinhallMemorial", "CONFIRMDAT": null, "CONFIRMPER": null }, "geometry": { "type": "Point", "coordinates": [ -72.896942139094691, 43.146053313579955 ] } },
{ "type": "Feature", "properties": { "ESITEID": 122026.000000, "FSCS_ID": "VT0197", "LIBRARY": "Hartford", "GEONAMEID": 9442, "HOUSENUMBE": "1587", "CALCADDRES": 1587, "PRIMARYADD": "1587 MAPLE ST", "SITETYPE": "PUBLIC GATHERING", "TOWNNAME": "HARTFORD", "ZIP": "05001", "GPSX": -72.342567, "GPSY": 43.661358, "MAIL": "PO Box 512", "STREETAD": "1587 Maple St", "WEBADDRESS": "Hartford@vals.state.vt.us", "CITY": "Hartford", "COUNTY": "Windsor", "TEL_NUM": "(802) 296-2568", "DIGINAME": "Hartford", "CONFIRMDAT": null, "CONFIRMPER": null }, "geometry": { "type": "Point", "coordinates": [ -72.342567444257355, 43.66135787983854 ] } },
{ "type": "Feature", "properties": { "ESITEID": 123190.000000, "FSCS_ID": "VT0198", "LIBRARY": "Quechee", "GEONAMEID": 9477, "HOUSENUMBE": "1957", "CALCADDRES": 1957, "PRIMARYADD": "1957 QUECHEE MAIN ST", "SITETYPE": "EDUCATIONAL", "TOWNNAME": "HARTFORD", "ZIP": "05001", "GPSX": -72.421509, "GPSY": 43.648399, "MAIL": "PO Box 384", "STREETAD": "1957 Quechee Main St", "WEBADDRESS": "www.quecheelibrary.org", "CITY": "Quechee", "COUNTY": "Windsor", "TEL_NUM": "(802) 295-1232", "DIGINAME": "Quechee", "CONFIRMDAT": null, "CONFIRMPER": null }, "geometry": { "type": "Point", "coordinates": [ -72.421508788396238, 43.648399353563988 ] } },
{ "type": "Feature", "properties": { "ESITEID": 120137.000000, "FSCS_ID": "VT0199", "LIBRARY": "West Hartford", "GEONAMEID": 9565, "HOUSENUMBE": "5133", "CALCADDRES": 5133, "PRIMARYADD": "5133 VT ROUTE 14", "SITETYPE": "EDUCATIONAL", "TOWNNAME": "HARTFORD", "ZIP": "05001", "GPSX": -72.417212, "GPSY": 43.712588, "MAIL": "PO Box 26", "STREETAD": "5133 VT Route 14", "WEBADDRESS": "(none)", "CITY": "West Hartford", "COUNTY": "Windsor", "TEL_NUM": "(802) 295-7992", "DIGINAME": "WestHartford", "CONFIRMDAT": null, "CONFIRMPER": null }, "geometry": { "type": "Point", "coordinates": [ -72.417211590953315, 43.712587557753494 ] } },
{ "type": "Feature", "properties": { "ESITEID": 68360.000000, "FSCS_ID": "VT0206", "LIBRARY": "Bailey Memorial", "GEONAMEID": 4989, "HOUSENUMBE": "111", "CALCADDRES": 111, "PRIMARYADD": "111 MOULTON AVE", "SITETYPE": "OTHER", "TOWNNAME": "CLARENDON", "ZIP": "05759", "GPSX": -72.968069, "GPSY": 43.564637, "MAIL": "111 Moulton Ave", "STREETAD": "111 Moulton Ave", "WEBADDRESS": "baileylibraryvt.wordpress.com", "CITY": "N. Clarendon", "COUNTY": "Rutland", "TEL_NUM": "(802) 747-7743", "DIGINAME": "BaileyMemorial", "CONFIRMDAT": null, "CONFIRMPER": null }, "geometry": { "type": "Point", "coordinates": [ -72.968069394990565, 43.56463732872453 ] } },
{ "type": "Feature", "properties": { "ESITEID": 89464.000000, "FSCS_ID": "VT0208", "LIBRARY": "Lydia Taft Pratt", "GEONAMEID": 6534, "HOUSENUMBE": "150", "CALCADDRES": 156, "PRIMARYADD": "150 WEST ST", "SITETYPE": "GOVERNMENT", "TOWNNAME": "DUMMERSTON", "ZIP": "05301", "GPSX": -72.612228, "GPSY": 42.928043, "MAIL": "PO Box 70", "STREETAD": "150 West St", "WEBADDRESS": "dummerstonpl@vals.state.vt.us", "CITY": "West Dummerston", "COUNTY": "Windham", "TEL_NUM": "(802) 258-9878", "DIGINAME": "LydiaTaftPratt", "CONFIRMDAT": null, "CONFIRMPER": null }, "geometry": { "type": "Point", "coordinates": [ -72.612228394506474, 42.928043365976436 ] } },
{ "type": "Feature", "properties": { "ESITEID": 138287.000000, "FSCS_ID": "VT0081", "LIBRARY": "Johnson Public", "GEONAMEID": 10821, "HOUSENUMBE": "7", "CALCADDRES": 7, "PRIMARYADD": "7 LIBRARY ST", "SITETYPE": "CULTURAL", "TOWNNAME": "JOHNSON", "ZIP": "05656", "GPSX": -72.681998, "GPSY": 44.634675, "MAIL": "PO Box 601", "STREETAD": "7 Library Dr", "WEBADDRESS": "johnsonpubliclibrary.wordpress.com\/", "CITY": "Johnson", "COUNTY": "Lamoille", "TEL_NUM": "(802) 635-7141", "DIGINAME": "JohnsonPublic", "CONFIRMDAT": null, "CONFIRMPER": null }, "geometry": { "type": "Point", "coordinates": [ -72.681997546082258, 44.63467504499846 ] } },
{ "type": "Feature", "properties": { "ESITEID": 147429.000000, "FSCS_ID": "VT0089", "LIBRARY": "Cobleigh Public", "GEONAMEID": 11292, "HOUSENUMBE": "14", "CALCADDRES": 14, "PRIMARYADD": "14 DEPOT ST", "SITETYPE": "CULTURAL", "TOWNNAME": "LYNDON", "ZIP": "05851", "GPSX": -72.004868, "GPSY": 44.535103, "MAIL": "PO Box 147", "STREETAD": "14 Depot St", "WEBADDRESS": "www.cobleighlibrary.org", "CITY": "Lyndonville", "COUNTY": "Caledonia", "TEL_NUM": "(802) 626-5475", "DIGINAME": "CobleighPublic", "CONFIRMDAT": null, "CONFIRMPER": null }, "geometry": { "type": "Point", "coordinates": [ -72.004867553497036, 44.535102845053984 ] } },
{ "type": "Feature", "properties": { "ESITEID": 291377.000000, "FSCS_ID": "VT0188", "LIBRARY": "Dorothy Alling Memorial", "GEONAMEID": 23819, "HOUSENUMBE": "21", "CALCADDRES": 21, "PRIMARYADD": "21 LIBRARY LN", "SITETYPE": "GOVERNMENT", "TOWNNAME": "WILLISTON", "ZIP": "05495", "GPSX": -73.074272, "GPSY": 44.439148, "MAIL": "21 Library Ln", "STREETAD": "The corner of Library Ln & US Route 2", "WEBADDRESS": "www.williston.lib.vt.us", "CITY": "Williston", "COUNTY": "Chittenden", "TEL_NUM": "(802) 878-4918", "DIGINAME": "DorothyAlling", "CONFIRMDAT": "2014\/12\/23", "CONFIRMPER": "Marti Fiske - Dorothy Alling Memorial" }, "geometry": { "type": "Point", "coordinates": [ -73.074272156776459, 44.439147949611858 ] } },
{ "type": "Feature", "properties": { "ESITEID": 80451.000000, "FSCS_ID": "VT0211", "LIBRARY": "Brainerd Memorial", "GEONAMEID": 6043, "HOUSENUMBE": "4215", "CALCADDRES": 4215, "PRIMARYADD": "4215 BRUCE BADGER MEML HWY", "SITETYPE": "EDUCATIONAL", "TOWNNAME": "DANVILLE", "ZIP": "05828", "GPSX": -72.099791, "GPSY": 44.459307, "MAIL": "4215 Bruce Badger Meml Hwy", "STREETAD": "-", "WEBADDRESS": "(none)", "CITY": "N. Danville", "COUNTY": "Caledonia", "TEL_NUM": "4\/8\/1900", "DIGINAME": "BrainerdMemorial", "CONFIRMDAT": null, "CONFIRMPER": null }, "geometry": { "type": "Point", "coordinates": [ -72.09979076508688, 44.459306881527652 ] } },
{ "type": "Feature", "properties": { "ESITEID": 216805.000000, "FSCS_ID": "VT0212", "LIBRARY": "Salisbury Free Public", "GEONAMEID": 17756, "HOUSENUMBE": "918", "CALCADDRES": 918, "PRIMARYADD": "918 MAPLE ST", "SITETYPE": "GOVERNMENT", "TOWNNAME": "SALISBURY", "ZIP": "05769", "GPSX": -73.101700, "GPSY": 43.896217, "MAIL": "PO Box 59", "STREETAD": "918 Maple St", "WEBADDRESS": "http:\/\/salisburypubliclibrary.wordpress.com\/", "CITY": "Salisbury", "COUNTY": "Addison", "TEL_NUM": "(802) 458-0747", "DIGINAME": "SalisburyFree", "CONFIRMDAT": null, "CONFIRMPER": null }, "geometry": { "type": "Point", "coordinates": [ -73.101699828874104, 43.89621734586413 ] } },
{ "type": "Feature", "properties": { "ESITEID": 77215.000000, "FSCS_ID": "VT0213", "LIBRARY": "Blake Memorial", "GEONAMEID": 5656, "HOUSENUMBE": "676", "CALCADDRES": 676, "PRIMARYADD": "676 VILLAGE RD", "SITETYPE": "LIBRARY", "TOWNNAME": "CORINTH", "ZIP": "05040", "GPSX": -72.221765, "GPSY": 44.063728, "MAIL": "PO Box D", "STREETAD": "676 Village Rd", "WEBADDRESS": "www.blakememorial.org", "CITY": "E. Corinth", "COUNTY": "Orange", "TEL_NUM": "(802) 439-5338", "DIGINAME": "BlakeMemorial", "CONFIRMDAT": null, "CONFIRMPER": null }, "geometry": { "type": "Point", "coordinates": [ -72.221764910475528, 44.063728236245204 ] } },
{ "type": "Feature", "properties": { "ESITEID": 135892.000000, "FSCS_ID": "VT0214", "LIBRARY": "Deborah Rawson Memorial", "GEONAMEID": 10635, "HOUSENUMBE": "8", "CALCADDRES": 8, "PRIMARYADD": "8 RIVER RD", "SITETYPE": "CULTURAL", "TOWNNAME": "JERICHO", "ZIP": "05489", "GPSX": -72.946562, "GPSY": 44.518250, "MAIL": "8 River Rd", "STREETAD": "-", "WEBADDRESS": "www.drml.org", "CITY": "Jericho", "COUNTY": "Chittenden", "TEL_NUM": "(802) 899-4962", "DIGINAME": "DeborahRawson", "CONFIRMDAT": null, "CONFIRMPER": null }, "geometry": { "type": "Point", "coordinates": [ -72.946561514051567, 44.518250097486806 ] } },
{ "type": "Feature", "properties": { "ESITEID": 278885.000000, "FSCS_ID": "VT0218", "LIBRARY": "West Fairlee Free Public", "GEONAMEID": 22633, "HOUSENUMBE": "894", "CALCADDRES": 894, "PRIMARYADD": "894 VT ROUTE 113", "SITETYPE": "EDUCATIONAL", "TOWNNAME": "WEST FAIRLEE", "ZIP": "05083", "GPSX": -72.262062, "GPSY": 43.909920, "MAIL": "894 VT Route 113 Unit 3", "STREETAD": "894 VT Route 113", "WEBADDRESS": "http:\/\/westfairleelibrary.wordpress.com", "CITY": "West Fairlee", "COUNTY": "Orange", "TEL_NUM": "(802) 333-3502", "DIGINAME": "WestFairleeFree", "CONFIRMDAT": null, "CONFIRMPER": null }, "geometry": { "type": "Point", "coordinates": [ -72.262061691259248, 43.90992041792574 ] } },
{ "type": "Feature", "properties": { "ESITEID": 79226.000000, "FSCS_ID": "VT0210", "LIBRARY": "John W. Simpson Memorial", "GEONAMEID": 5896, "HOUSENUMBE": "1972", "CALCADDRES": 1972, "PRIMARYADD": "1972 E CRAFTSBURY RD", "SITETYPE": "CULTURAL", "TOWNNAME": "CRAFTSBURY", "ZIP": "05826", "GPSX": -72.338120, "GPSY": 44.639885, "MAIL": "300 Shields Ln", "STREETAD": "1972 E Craftsbury Rd", "WEBADDRESS": "(none)", "CITY": "Craftsbury Common", "COUNTY": "Orleans", "TEL_NUM": "(802) 586-9692", "DIGINAME": "JohnWSimpson", "CONFIRMDAT": null, "CONFIRMPER": null }, "geometry": { "type": "Point", "coordinates": [ -72.338119506795437, 44.639884948105227 ] } },
{ "type": "Feature", "properties": { "ESITEID": 184314.000000, "FSCS_ID": "VT0222", "LIBRARY": "Orwell Free Library", "GEONAMEID": 14681, "HOUSENUMBE": "473", "CALCADDRES": 473, "PRIMARYADD": "473 MAIN ST", "SITETYPE": "PUBLIC GATHERING", "TOWNNAME": "ORWELL", "ZIP": "05760", "GPSX": -73.299919, "GPSY": 43.803486, "MAIL": "PO Box 92", "STREETAD": "473 Main St", "WEBADDRESS": "www.orwellfreelibrary.wordpress.com", "CITY": "Orwell Vt", "COUNTY": "Addison", "TEL_NUM": "(802) 948-2041", "DIGINAME": "OrwellFree", "CONFIRMDAT": null, "CONFIRMPER": null }, "geometry": { "type": "Point", "coordinates": [ -73.299919127499919, 43.803485871220047 ] } },
{ "type": "Feature", "properties": { "ESITEID": 80034.000000, "FSCS_ID": "VT9998", "LIBRARY": "S.L. Griffith Memorial Library", "GEONAMEID": 5981, "HOUSENUMBE": "74", "CALCADDRES": 74, "PRIMARYADD": "74 S MAIN ST", "SITETYPE": "GOVERNMENT", "TOWNNAME": "DANBY", "ZIP": "05739", "GPSX": -72.995964, "GPSY": 43.345737, "MAIL": "74 S Main St", "STREETAD": "-", "WEBADDRESS": "(none)", "CITY": "Danby", "COUNTY": "Rutland", "TEL_NUM": "(802) 293-5106", "DIGINAME": "SLGriffithMemorial", "CONFIRMDAT": null, "CONFIRMPER": null }, "geometry": { "type": "Point", "coordinates": [ -72.995964049938692, 43.345737457503667 ] } },
{ "type": "Feature", "properties": { "ESITEID": 7331.000000, "FSCS_ID": "VT0009", "LIBRARY": "Barnet Public", "GEONAMEID": 708, "HOUSENUMBE": "147", "CALCADDRES": 147, "PRIMARYADD": "147 CHURCH ST", "SITETYPE": "COMMERCIAL", "TOWNNAME": "BARNET", "ZIP": "05821", "GPSX": -72.052856, "GPSY": 44.295952, "MAIL": "PO Box 34", "STREETAD": "147 Church St", "WEBADDRESS": "(none)", "CITY": "Barnet", "COUNTY": "Caledonia", "TEL_NUM": "(802) 633-4436", "DIGINAME": "BarnetPublic", "CONFIRMDAT": null, "CONFIRMPER": null }, "geometry": { "type": "Point", "coordinates": [ -72.052856445445116, 44.295951844029858 ] } },
{ "type": "Feature", "properties": { "ESITEID": 14302.000000, "FSCS_ID": "VT0013", "LIBRARY": "Jones Memorial", "GEONAMEID": 415700, "HOUSENUMBE": "1", "CALCADDRES": 1, "PRIMARYADD": "1 WATER ST", "SITETYPE": "GOVERNMENT", "TOWNNAME": "ORLEANS VILLAGE", "ZIP": "05860", "GPSX": -72.201947, "GPSY": 44.811003, "MAIL": "1 Water St", "STREETAD": "1 Water St", "WEBADDRESS": "http:\/\/jonesmemoriallibrary.wordpress.com", "CITY": "Orleans", "COUNTY": "Orleans", "TEL_NUM": "(802) 754-6660", "DIGINAME": "JonesMemorial", "CONFIRMDAT": "2014\/12\/23", "CONFIRMPER": "Jones Memorial" }, "geometry": { "type": "Point", "coordinates": [ -72.201946651922526, 44.811002863986978 ] } },
{ "type": "Feature", "properties": { "ESITEID": 304867.000000, "FSCS_ID": "VT0015", "LIBRARY": "J. G. McCullough Free", "GEONAMEID": 1876, "HOUSENUMBE": "2", "CALCADDRES": 1, "PRIMARYADD": "2 MAIN ST", "SITETYPE": "EDUCATIONAL", "TOWNNAME": "NORTH BENNINGTON VILLAGE", "ZIP": "05257", "GPSX": -73.242722, "GPSY": 42.929066, "MAIL": "PO Box 339", "STREETAD": "2 Main St", "WEBADDRESS": "www.mccullough.lib.vt.us", "CITY": "North Bennington", "COUNTY": "Bennington", "TEL_NUM": "(802) 447-7121", "DIGINAME": "JGMcCullough", "CONFIRMDAT": null, "CONFIRMPER": null }, "geometry": { "type": "Point", "coordinates": [ -73.242721557620513, 42.929065703740036 ] } },
{ "type": "Feature", "properties": { "ESITEID": 39404.000000, "FSCS_ID": "VT0024", "LIBRARY": "Lawrence Memorial", "GEONAMEID": 3364, "HOUSENUMBE": "40", "CALCADDRES": 40, "PRIMARYADD": "40 NORTH ST", "SITETYPE": "GOVERNMENT", "TOWNNAME": "BRISTOL", "ZIP": "05443", "GPSX": -73.078491, "GPSY": 44.135765, "MAIL": "40 North St", "STREETAD": "-", "WEBADDRESS": "www.lawrencelibrary.net", "CITY": "Bristol", "COUNTY": "Addison", "TEL_NUM": "(802) 453-2366", "DIGINAME": "LawrenceMemorial", "CONFIRMDAT": null, "CONFIRMPER": null }, "geometry": { "type": "Point", "coordinates": [ -73.078490779484, 44.13576522809295 ] } },
{ "type": "Feature", "properties": { "ESITEID": 60387.000000, "FSCS_ID": "VT0033", "LIBRARY": "Castleton Free", "GEONAMEID": 4182, "HOUSENUMBE": "638", "CALCADDRES": 638, "PRIMARYADD": "638 MAIN ST", "SITETYPE": "PUBLIC GATHERING", "TOWNNAME": "CASTLETON", "ZIP": "05735", "GPSX": -73.178370, "GPSY": 43.611918, "MAIL": "PO Box 296", "STREETAD": "638 Main St", "WEBADDRESS": "castletonfreelibrary.org", "CITY": "Castleton", "COUNTY": "Rutland", "TEL_NUM": "(802) 468-5574", "DIGINAME": "CastletonFree", "CONFIRMDAT": null, "CONFIRMPER": null }, "geometry": { "type": "Point", "coordinates": [ -73.17837020441317, 43.611918446594785 ] } },
{ "type": "Feature", "properties": { "ESITEID": 115235.000000, "FSCS_ID": "VT0065", "LIBRARY": "Greensboro Free", "GEONAMEID": 8571, "HOUSENUMBE": "53", "CALCADDRES": 53, "PRIMARYADD": "53 WILSON ST", "SITETYPE": "CULTURAL", "TOWNNAME": "GREENSBORO", "ZIP": "05841", "GPSX": -72.296353, "GPSY": 44.576784, "MAIL": "53 Wilson St", "STREETAD": "53 Wilson Street", "WEBADDRESS": "http:\/\/www.greensborofreelibrary.org\/", "CITY": "Greensboro", "COUNTY": "Orleans", "TEL_NUM": "(802) 533-2531", "DIGINAME": "GreensboroFree", "CONFIRMDAT": null, "CONFIRMPER": null }, "geometry": { "type": "Point", "coordinates": [ -72.296353035677043, 44.576783637776657 ] } },
{ "type": "Feature", "properties": { "ESITEID": 98464.000000, "FSCS_ID": "VT0054", "LIBRARY": "Brownell", "GEONAMEID": 417890, "HOUSENUMBE": "6", "CALCADDRES": 6, "PRIMARYADD": "6 LINCOLN ST", "SITETYPE": "EDUCATIONAL", "TOWNNAME": "ESSEX JUNCTION VILLAGE", "ZIP": "05452", "GPSX": -73.111496, "GPSY": 44.491364, "MAIL": "6 Lincoln St", "STREETAD": "-", "WEBADDRESS": "www.brownelllibrary.org", "CITY": "Essex Junction", "COUNTY": "Chittenden", "TEL_NUM": "(802) 878-6955", "DIGINAME": "Brownell", "CONFIRMDAT": null, "CONFIRMPER": null }, "geometry": { "type": "Point", "coordinates": [ -73.111495972692381, 44.491363524607088 ] } },
{ "type": "Feature", "properties": { "ESITEID": 136605.000000, "FSCS_ID": "VT0080", "LIBRARY": "Jericho Town", "GEONAMEID": 10700, "HOUSENUMBE": "7", "CALCADDRES": 7, "PRIMARYADD": "7 JERICHO CENTER CIR", "SITETYPE": "HOUSE OF WORSHIP", "TOWNNAME": "JERICHO", "ZIP": "05465", "GPSX": -72.971886, "GPSY": 44.469319, "MAIL": "PO Box 1055", "STREETAD": "7 The Green", "WEBADDRESS": "http:\/\/www.jerichotownlibrary.org", "CITY": "Jericho Center", "COUNTY": "Chittenden", "TEL_NUM": "(802) 899-4686", "DIGINAME": "JerichoTown", "CONFIRMDAT": null, "CONFIRMPER": null }, "geometry": { "type": "Point", "coordinates": [ -72.971885772733273, 44.469318769789005 ] } },
{ "type": "Feature", "properties": { "ESITEID": 190627.000000, "FSCS_ID": "VT0118", "LIBRARY": "Abbott Memorial", "GEONAMEID": 15398, "HOUSENUMBE": "15", "CALCADDRES": 15, "PRIMARYADD": "15 LIBRARY ST", "SITETYPE": "EDUCATIONAL", "TOWNNAME": "POMFRET", "ZIP": "05067", "GPSX": -72.539279, "GPSY": 43.665117, "MAIL": "PO Box 95", "STREETAD": "Library St & Stage Rd", "WEBADDRESS": "abbottmemoriallibrary.org", "CITY": "S. Pomfret", "COUNTY": "Windsor", "TEL_NUM": "(802) 457-2236", "DIGINAME": "AbbottMemorial", "CONFIRMDAT": null, "CONFIRMPER": null }, "geometry": { "type": "Point", "coordinates": [ -72.53927877844805, 43.665117492701853 ] } },
{ "type": "Feature", "properties": { "ESITEID": 199498.000000, "FSCS_ID": "VT0126", "LIBRARY": "Arvin A. Brown Public", "GEONAMEID": 16363, "HOUSENUMBE": "90", "CALCADDRES": 90, "PRIMARYADD": "90 MAIN ST", "SITETYPE": "GOVERNMENT", "TOWNNAME": "RICHFORD", "ZIP": "05476", "GPSX": -72.673424, "GPSY": 44.994975, "MAIL": "88 Main St", "STREETAD": "-", "WEBADDRESS": "www.aabrown.org", "CITY": "Richford", "COUNTY": "Franklin", "TEL_NUM": "(802) 848-3313", "DIGINAME": "ArvinABrown", "CONFIRMDAT": null, "CONFIRMPER": null }, "geometry": { "type": "Point", "coordinates": [ -72.673424281463312, 44.994974689417724 ] } },
{ "type": "Feature", "properties": { "ESITEID": 204476.000000, "FSCS_ID": "VT0129", "LIBRARY": "Rockingham Free Public", "GEONAMEID": 421280, "HOUSENUMBE": "65", "CALCADDRES": 65, "PRIMARYADD": "65 WESTMINSTER ST", "SITETYPE": "CULTURAL", "TOWNNAME": "BELLOWS FALLS", "ZIP": "05101", "GPSX": -72.444586, "GPSY": 43.130857, "MAIL": "65 Westminster St", "STREETAD": "-", "WEBADDRESS": "www.rockinghamlibrary.org", "CITY": "Bellows Falls", "COUNTY": "Windham", "TEL_NUM": "(802) 463-4270", "DIGINAME": "RockinghamFree", "CONFIRMDAT": null, "CONFIRMPER": null }, "geometry": { "type": "Point", "coordinates": [ -72.444585757882351, 43.130856856765185 ] } },
{ "type": "Feature", "properties": { "ESITEID": 256188.000000, "FSCS_ID": "VT0154", "LIBRARY": "Swanton Public", "GEONAMEID": 28840, "HOUSENUMBE": "27", "CALCADDRES": 27, "PRIMARYADD": "27 GRAND AVE", "SITETYPE": "GOVERNMENT", "TOWNNAME": "SWANTON", "ZIP": "05488", "GPSX": -73.124290, "GPSY": 44.918485, "MAIL": "1 First St", "STREETAD": "Corner of Grand Ave & First St", "WEBADDRESS": "http:\/\/swantonlibrary.org", "CITY": "Swanton", "COUNTY": "Franklin", "TEL_NUM": "(802) 868-7656", "DIGINAME": "SwantonPublic", "CONFIRMDAT": null, "CONFIRMPER": null }, "geometry": { "type": "Point", "coordinates": [ -73.1242898127243, 44.918485238858629 ] } },
{ "type": "Feature", "properties": { "ESITEID": 260014.000000, "FSCS_ID": "VT0158", "LIBRARY": "Tinmouth", "GEONAMEID": 20766, "HOUSENUMBE": "9", "CALCADDRES": 9, "PRIMARYADD": "9 MOUNTAIN VIEW RD", "SITETYPE": "GOVERNMENT", "TOWNNAME": "TINMOUTH", "ZIP": "05773", "GPSX": -73.050224, "GPSY": 43.448170, "MAIL": "141 East Rd", "STREETAD": "9 Mountain View Rd", "WEBADDRESS": "(none)", "CITY": "Tinmouth", "COUNTY": "Rutland", "TEL_NUM": "(802) 446-2498", "DIGINAME": "Tinmouth", "CONFIRMDAT": null, "CONFIRMPER": null }, "geometry": { "type": "Point", "coordinates": [ -73.050224304160437, 43.448169707550463 ] } },
{ "type": "Feature", "properties": { "ESITEID": 215994.000000, "FSCS_ID": "VT0136", "LIBRARY": "South Ryegate Public", "GEONAMEID": 17656, "HOUSENUMBE": "140", "CALCADDRES": 140, "PRIMARYADD": "140 CHURCH ST", "SITETYPE": "CULTURAL", "TOWNNAME": "RYEGATE", "ZIP": "05069", "GPSX": -72.140526, "GPSY": 44.186325, "MAIL": "140 Church St", "STREETAD": "-", "WEBADDRESS": "(none)", "CITY": "South Ryegate", "COUNTY": "Caledonia", "TEL_NUM": "98", "DIGINAME": "SouthRyegatePublic", "CONFIRMDAT": null, "CONFIRMPER": null }, "geometry": { "type": "Point", "coordinates": [ -72.140525818029147, 44.186325073730671 ] } },
{ "type": "Feature", "properties": { "ESITEID": 306458.000000, "FSCS_ID": "VT0195", "LIBRARY": "Woodbury Community", "GEONAMEID": 24531, "HOUSENUMBE": "65", "CALCADDRES": 65, "PRIMARYADD": "65 VALLEY LAKE RD", "SITETYPE": "CULTURAL", "TOWNNAME": "WOODBURY", "ZIP": "05681", "GPSX": -72.416154, "GPSY": 44.439666, "MAIL": "PO Box 329", "STREETAD": "69 Valley Lake Rd", "WEBADDRESS": "(none)", "CITY": "Woodbury", "COUNTY": "Washington", "TEL_NUM": "(802) 472-", "DIGINAME": "WoodburyCommunity", "CONFIRMDAT": null, "CONFIRMPER": null }, "geometry": { "type": "Point", "coordinates": [ -72.416154331906768, 44.439666097017749 ] } },
{ "type": "Feature", "properties": { "ESITEID": 278461.000000, "FSCS_ID": "VT0176", "LIBRARY": "Wells Village", "GEONAMEID": 22572, "HOUSENUMBE": "37", "CALCADDRES": 5, "PRIMARYADD": "37 E WELLS RD", "SITETYPE": "CULTURAL", "TOWNNAME": "WELLS", "ZIP": "05774", "GPSX": -73.202928, "GPSY": 43.417296, "MAIL": "PO Box 587", "STREETAD": "5 E Wells Rd", "WEBADDRESS": "wellslibrary.com", "CITY": "Wells", "COUNTY": "Rutland", "TEL_NUM": "(802) 645-0611", "DIGINAME": "WellsVillage", "CONFIRMDAT": null, "CONFIRMPER": null }, "geometry": { "type": "Point", "coordinates": [ -73.202928428080583, 43.41729645774344 ] } },
{ "type": "Feature", "properties": { "ESITEID": 303065.000000, "FSCS_ID": "VT0196", "LIBRARY": "Norman Williams Public", "GEONAMEID": 29287, "HOUSENUMBE": "10", "CALCADDRES": 10, "PRIMARYADD": "10 THE GREEN", "SITETYPE": "CULTURAL", "TOWNNAME": "WOODSTOCK", "ZIP": "05091", "GPSX": -72.518692, "GPSY": 43.624277, "MAIL": "10 South Park St", "STREETAD": "-", "WEBADDRESS": "www.normanwilliams.org", "CITY": "Woodstock", "COUNTY": "Windsor", "TEL_NUM": "(802) 457-2295", "DIGINAME": "NormanWilliamsPublic", "CONFIRMDAT": null, "CONFIRMPER": null }, "geometry": { "type": "Point", "coordinates": [ -72.51869174813973, 43.624276618282423 ] } },
{ "type": "Feature", "properties": { "ESITEID": 29463.000000, "FSCS_ID": "VT0019", "LIBRARY": "Brandon Free Public", "GEONAMEID": 2961, "HOUSENUMBE": "33", "CALCADDRES": 33, "PRIMARYADD": "33 PARK ST", "SITETYPE": "GOVERNMENT", "TOWNNAME": "BRANDON", "ZIP": "05733", "GPSX": -73.086044, "GPSY": 43.798080, "MAIL": "4 Franklin St", "STREETAD": "-", "WEBADDRESS": "www.brandonpubliclibrary.org", "CITY": "Brandon", "COUNTY": "Rutland", "TEL_NUM": "(802) 247-8230", "DIGINAME": "BrandonFree", "CONFIRMDAT": null, "CONFIRMPER": null }, "geometry": { "type": "Point", "coordinates": [ -73.086044310678815, 43.798080443769265 ] } },
{ "type": "Feature", "properties": { "ESITEID": 252377.000000, "FSCS_ID": "VT0152", "LIBRARY": "Morrill Mem. & Harris", "GEONAMEID": 20502, "HOUSENUMBE": "220", "CALCADDRES": 220, "PRIMARYADD": "220 JUSTIN MORRILL MEM HWY", "SITETYPE": "CULTURAL", "TOWNNAME": "STRAFFORD", "ZIP": "05072", "GPSX": -72.376167, "GPSY": 43.863914, "MAIL": "PO Box 110", "STREETAD": "220 Justin Morrill Hwy", "WEBADDRESS": "www.straffordlibrary.org", "CITY": "Strafford", "COUNTY": "Orange", "TEL_NUM": "(802) 765-4037", "DIGINAME": "MorrillHarris", "CONFIRMDAT": null, "CONFIRMPER": null }, "geometry": { "type": "Point", "coordinates": [ -72.376167297504452, 43.863914489366202 ] } },
{ "type": "Feature", "properties": { "ESITEID": 84619.000000, "FSCS_ID": "VT0050", "LIBRARY": "Dorset Village Public", "GEONAMEID": 6349, "HOUSENUMBE": "13", "CALCADDRES": 13, "PRIMARYADD": "13 CHURCH ST", "SITETYPE": "LIBRARY", "TOWNNAME": "DORSET", "ZIP": "05251", "GPSX": -73.098882, "GPSY": 43.254603, "MAIL": "PO Box 38", "STREETAD": "Route 30 & Church St", "WEBADDRESS": "http:\/\/www.dorsetlibraryinfo.org", "CITY": "Dorset", "COUNTY": "Bennington", "TEL_NUM": "(802) 867-5774", "DIGINAME": "DorsetVillage", "CONFIRMDAT": null, "CONFIRMPER": null }, "geometry": { "type": "Point", "coordinates": [ -73.098882260896772, 43.254602740327265 ] } },
{ "type": "Feature", "properties": { "ESITEID": 102261.000000, "FSCS_ID": "VT0057", "LIBRARY": "Fair Haven Free", "GEONAMEID": 32548, "HOUSENUMBE": "109", "CALCADDRES": 109, "PRIMARYADD": "109 MAIN ST", "SITETYPE": "PUBLIC GATHERING", "TOWNNAME": "FAIR HAVEN", "ZIP": "05743", "GPSX": -73.265182, "GPSY": 43.594139, "MAIL": "107 Main St", "STREETAD": "-", "WEBADDRESS": "fairhavenfree.org", "CITY": "Fair Haven", "COUNTY": "Rutland", "TEL_NUM": "(802) 265-8011", "DIGINAME": "FairHavenFree", "CONFIRMDAT": null, "CONFIRMPER": null }, "geometry": { "type": "Point", "coordinates": [ -73.2651824943419, 43.594139098610995 ] } },
{ "type": "Feature", "properties": { "ESITEID": 95476.000000, "FSCS_ID": "VT0053", "LIBRARY": "Essex Free", "GEONAMEID": 6988, "HOUSENUMBE": "1", "CALCADDRES": 1, "PRIMARYADD": "1 BROWNS RIVER RD", "SITETYPE": "EDUCATIONAL", "TOWNNAME": "ESSEX TOWN", "ZIP": "05452", "GPSX": -73.058607, "GPSY": 44.511606, "MAIL": "PO Box 8093", "STREETAD": "Routes 15 & 128", "WEBADDRESS": "www.essex.org", "CITY": "Essex", "COUNTY": "Chittenden", "TEL_NUM": "(802) 879-0313", "DIGINAME": "EssexFree", "CONFIRMDAT": null, "CONFIRMPER": null }, "geometry": { "type": "Point", "coordinates": [ -73.058606870216721, 44.511606172770335 ] } },
{ "type": "Feature", "properties": { "ESITEID": 116184.000000, "FSCS_ID": "VT0066", "LIBRARY": "Groton Free Public", "GEONAMEID": 28775, "HOUSENUMBE": "1334", "CALCADDRES": 1334, "PRIMARYADD": "1334 SCOTT HWY", "SITETYPE": "COMMERCIAL", "TOWNNAME": "GROTON", "ZIP": "05046", "GPSX": -72.194849, "GPSY": 44.210553, "MAIL": "1304 Scott Hwy", "STREETAD": "1304 Scott Highway", "WEBADDRESS": "http:\/\/grotonlibraryvt.org", "CITY": "Groton", "COUNTY": "Caledonia", "TEL_NUM": "(802) 584-3358", "DIGINAME": "GrotonFreePublic", "CONFIRMDAT": null, "CONFIRMPER": null }, "geometry": { "type": "Point", "coordinates": [ -72.194849029083528, 44.210553371879875 ] } },
{ "type": "Feature", "properties": { "ESITEID": 21728.000000, "FSCS_ID": "VT0016", "LIBRARY": "Benson Public", "GEONAMEID": 2295, "HOUSENUMBE": "2724", "CALCADDRES": 2724, "PRIMARYADD": "2724 STAGE RD", "SITETYPE": "CULTURAL", "TOWNNAME": "BENSON", "ZIP": "05743", "GPSX": -73.309822, "GPSY": 43.708343, "MAIL": "PO Box 271", "STREETAD": "2724 Stage Rd", "WEBADDRESS": "(none)", "CITY": "Benson", "COUNTY": "Rutland", "TEL_NUM": "(802) 537-4181", "DIGINAME": "BensonPublic", "CONFIRMDAT": null, "CONFIRMPER": null }, "geometry": { "type": "Point", "coordinates": [ -73.309822082920846, 43.708343506153049 ] } },
{ "type": "Feature", "properties": { "ESITEID": 66734.000000, "FSCS_ID": "VT0037", "LIBRARY": "Whiting", "GEONAMEID": 4758, "HOUSENUMBE": "117", "CALCADDRES": 117, "PRIMARYADD": "117 MAIN ST", "SITETYPE": "CULTURAL", "TOWNNAME": "CHESTER", "ZIP": "05143", "GPSX": -72.597176, "GPSY": 43.263645, "MAIL": "PO Box 68", "STREETAD": "117 Main St", "WEBADDRESS": "http:\/\/chester.govoffice.com", "CITY": "Chester", "COUNTY": "Windsor", "TEL_NUM": "(802) 875-2277", "DIGINAME": "Whiting", "CONFIRMDAT": null, "CONFIRMPER": null }, "geometry": { "type": "Point", "coordinates": [ -72.597175599634141, 43.263645172142191 ] } },
{ "type": "Feature", "properties": { "ESITEID": 142471.000000, "FSCS_ID": "VT0085", "LIBRARY": "Lowell Community", "GEONAMEID": 411220, "HOUSENUMBE": "3466", "CALCADDRES": 3466, "PRIMARYADD": "3466 VT ROUTE 100", "SITETYPE": "MOBILE HOME", "TOWNNAME": "LOWELL", "ZIP": "05847", "GPSX": -72.450014, "GPSY": 44.787508, "MAIL": "PO Box 189", "STREETAD": "Town Hall", "WEBADDRESS": "(none)", "CITY": "Lowell", "COUNTY": "Orleans", "TEL_NUM": "(802) 744-2447", "DIGINAME": "LowellCommunity", "CONFIRMDAT": null, "CONFIRMPER": null }, "geometry": { "type": "Point", "coordinates": [ -72.450013774066932, 44.787508103600103 ] } },
{ "type": "Feature", "properties": { "ESITEID": 163702.000000, "FSCS_ID": "VT0097", "LIBRARY": "Montgomery Town", "GEONAMEID": 12500, "HOUSENUMBE": "100", "CALCADDRES": 100, "PRIMARYADD": "100 MOUNTAIN RD", "SITETYPE": "MOBILE HOME", "TOWNNAME": "MONTGOMERY", "ZIP": "05471", "GPSX": -72.607117, "GPSY": 44.878769, "MAIL": "PO Box 448", "STREETAD": "86 Mountain Rd", "WEBADDRESS": "http:\/\/www.montgomeryvt.us\/library.htm", "CITY": "Montgomery Center", "COUNTY": "Franklin", "TEL_NUM": "(802) 326-3113", "DIGINAME": "MontgomeryTown", "CONFIRMDAT": null, "CONFIRMPER": null }, "geometry": { "type": "Point", "coordinates": [ -72.606842641479119, 44.878396701493273 ] } },
{ "type": "Feature", "properties": { "ESITEID": 186208.000000, "FSCS_ID": "VT0113", "LIBRARY": "Peacham", "GEONAMEID": 14863, "HOUSENUMBE": "656", "CALCADDRES": 656, "PRIMARYADD": "656 BAYLEY HAZEN RD", "SITETYPE": "SINGLE FAMILY DWELLING", "TOWNNAME": "PEACHAM", "ZIP": "05862", "GPSX": -72.170425, "GPSY": 44.328918, "MAIL": "PO Box 253", "STREETAD": "656 Bayley Hazen Rd", "WEBADDRESS": "peachamlibrary.org", "CITY": "Peacham", "COUNTY": "Caledonia", "TEL_NUM": "(802) 592-3216", "DIGINAME": "Peacham", "CONFIRMDAT": null, "CONFIRMPER": null }, "geometry": { "type": "Point", "coordinates": [ -72.170425416489948, 44.328918456774389 ] } },
{ "type": "Feature", "properties": { "ESITEID": 190023.000000, "FSCS_ID": "VT0117", "LIBRARY": "Tyson", "GEONAMEID": 15244, "HOUSENUMBE": "286", "CALCADDRES": 286, "PRIMARYADD": "286 DUBLIN RD", "SITETYPE": "SINGLE FAMILY DWELLING", "TOWNNAME": "PLYMOUTH", "ZIP": "05056", "GPSX": -72.708075, "GPSY": 43.467773, "MAIL": "867 Route 100", "STREETAD": "-", "WEBADDRESS": "(none)", "CITY": "Ludlow", "COUNTY": "Windsor", "TEL_NUM": "98", "DIGINAME": "Tyson", "CONFIRMDAT": null, "CONFIRMPER": null }, "geometry": { "type": "Point", "coordinates": [ -72.708074851759349, 43.467773047822071 ] } },
{ "type": "Feature", "properties": { "ESITEID": 191658.000000, "FSCS_ID": "VT0119", "LIBRARY": "Poultney Public", "GEONAMEID": 15486, "HOUSENUMBE": "205", "CALCADDRES": 205, "PRIMARYADD": "205 MAIN ST", "SITETYPE": "MULTI-FAMILY DWELLING", "TOWNNAME": "POULTNEY", "ZIP": "05764", "GPSX": -73.236969, "GPSY": 43.516903, "MAIL": "205 Main St Ste 1", "STREETAD": "205 Main St,", "WEBADDRESS": "poultneypubliclibrary.com", "CITY": "Poultney", "COUNTY": "Rutland", "TEL_NUM": "(802) 287-5556", "DIGINAME": "PoultneyPublic", "CONFIRMDAT": "2014\/12\/23", "CONFIRMPER": "Rebecca Cook - Poultney Public" }, "geometry": { "type": "Point", "coordinates": [ -73.23696899364117, 43.51690292273166 ] } },
{ "type": "Feature", "properties": { "ESITEID": 119325.000000, "FSCS_ID": "VT0070", "LIBRARY": "Jeudevine Memorial", "GEONAMEID": 9093, "HOUSENUMBE": "93", "CALCADDRES": 93, "PRIMARYADD": "93 N MAIN ST", "SITETYPE": "CULTURAL", "TOWNNAME": "HARDWICK", "ZIP": "05843", "GPSX": -72.365280, "GPSY": 44.505768, "MAIL": "PO Box 536", "STREETAD": "93 N Main St", "WEBADDRESS": "www.jeudevinememoriallibrary.org", "CITY": "Hardwick", "COUNTY": "Caledonia", "TEL_NUM": "(802) 472-5948", "DIGINAME": "JeudevineMemorial", "CONFIRMDAT": null, "CONFIRMPER": null }, "geometry": { "type": "Point", "coordinates": [ -72.365280152221359, 44.50576782193631 ] } },
{ "type": "Feature", "properties": { "ESITEID": 300292.000000, "FSCS_ID": "VT0193", "LIBRARY": "Winooski Memorial", "GEONAMEID": 31964, "HOUSENUMBE": "32", "CALCADDRES": 32, "PRIMARYADD": "32 MALLETTS BAY AVE", "SITETYPE": "COMMERCIAL", "TOWNNAME": "WINOOSKI", "ZIP": "05404", "GPSX": -73.191243, "GPSY": 44.492588, "MAIL": "1 Main St", "STREETAD": "32D Malletts Bay Ave", "WEBADDRESS": "winooskilibrary.wordpress.com", "CITY": "Winooski", "COUNTY": "Chittenden", "TEL_NUM": "(802) 655-6424", "DIGINAME": "WinooskiMemorial", "CONFIRMDAT": null, "CONFIRMPER": null }, "geometry": { "type": "Point", "coordinates": [ -73.191242595617098, 44.492587957525181 ] } },
{ "type": "Feature", "properties": { "ESITEID": 301221.000000, "FSCS_ID": "VT0194", "LIBRARY": "Glee Merritt Kelley Community", "GEONAMEID": 24505, "HOUSENUMBE": "320", "CALCADDRES": 320, "PRIMARYADD": "320 SCHOOL HILL DR", "SITETYPE": "EDUCATIONAL", "TOWNNAME": "WOLCOTT", "ZIP": "05680", "GPSX": -72.452908, "GPSY": 44.538226, "MAIL": "PO Box 179", "STREETAD": "School Hill Dr", "WEBADDRESS": "gmk_wolcott@vals.state.vt.us", "CITY": "Wolcott", "COUNTY": "Lamoille", "TEL_NUM": "(802) 472-6551", "DIGINAME": "GleeMerrittKelle", "CONFIRMDAT": null, "CONFIRMPER": null }, "geometry": { "type": "Point", "coordinates": [ -72.452908351891494, 44.538225942595901 ] } },
{ "type": "Feature", "properties": { "ESITEID": 1364.000000, "FSCS_ID": "VT0202", "LIBRARY": "Albany Town", "GEONAMEID": 127, "HOUSENUMBE": "540", "CALCADDRES": 540, "PRIMARYADD": "540 MAIN ST", "SITETYPE": "SINGLE FAMILY DWELLING", "TOWNNAME": "ALBANY", "ZIP": "05820", "GPSX": -72.378754, "GPSY": 44.735203, "MAIL": "PO Box 272", "STREETAD": "530 Main St", "WEBADDRESS": "(none)", "CITY": "Albany", "COUNTY": "Orleans", "TEL_NUM": "(802) 755-6107", "DIGINAME": "AlbanyTown", "CONFIRMDAT": null, "CONFIRMPER": null }, "geometry": { "type": "Point", "coordinates": [ -72.378753663484432, 44.735202789738722 ] } },
{ "type": "Feature", "properties": { "ESITEID": 249003.000000, "FSCS_ID": "VT0209", "LIBRARY": "Belcher Memorial", "GEONAMEID": 20176, "HOUSENUMBE": "4452", "CALCADDRES": 4452, "PRIMARYADD": "4452 VT ROUTE 107", "SITETYPE": "SINGLE FAMILY DWELLING", "TOWNNAME": "STOCKBRIDGE", "ZIP": "05032", "GPSX": -72.697929, "GPSY": 43.778122, "MAIL": "PO Box 144", "STREETAD": "4452 VT Route 107", "WEBADDRESS": "(none)", "CITY": "Gaysville", "COUNTY": "Windsor", "TEL_NUM": "(802) 234-6608", "DIGINAME": "BelcherMemorial", "CONFIRMDAT": null, "CONFIRMPER": null }, "geometry": { "type": "Point", "coordinates": [ -72.697929382012333, 43.778121949281122 ] } },
{ "type": "Feature", "properties": { "ESITEID": 267016.000000, "FSCS_ID": "VT0217", "LIBRARY": "Vershire Community", "GEONAMEID": 21378, "HOUSENUMBE": "6776", "CALCADDRES": 6776, "PRIMARYADD": "6776 VT ROUTE 113", "SITETYPE": "SINGLE FAMILY DWELLING", "TOWNNAME": "VERSHIRE", "ZIP": "05079", "GPSX": -72.320923, "GPSY": 43.969849, "MAIL": "PO Box 112", "STREETAD": "6776 VT Route 113", "WEBADDRESS": "(none)", "CITY": "Vershire", "COUNTY": "Orange", "TEL_NUM": "(802) 685-9982", "DIGINAME": "VershireCommunity", "CONFIRMDAT": null, "CONFIRMPER": null }, "geometry": { "type": "Point", "coordinates": [ -72.320922852081992, 43.969848633310498 ] } },
{ "type": "Feature", "properties": { "ESITEID": 116678.000000, "FSCS_ID": "VT9999", "LIBRARY": "Guildhall Public", "GEONAMEID": 8678, "HOUSENUMBE": "7218", "CALCADDRES": 7218, "PRIMARYADD": "7218 VT ROUTE 102", "SITETYPE": "CULTURAL", "TOWNNAME": "GUILDHALL", "ZIP": "05905", "GPSX": -71.559983, "GPSY": 44.564949, "MAIL": "PO Box 9", "STREETAD": "7218 VT Route 102", "WEBADDRESS": "(none)", "CITY": "Guidlhall", "COUNTY": "Essex", "TEL_NUM": "98", "DIGINAME": "GuildhallPublic", "CONFIRMDAT": null, "CONFIRMPER": null }, "geometry": { "type": "Point", "coordinates": [ -71.55998300904082, 44.564949253825759 ] } },
{ "type": "Feature", "properties": { "ESITEID": 334692.000000, "FSCS_ID": "VT0173", "LIBRARY": "Davies Memorial", "GEONAMEID": 22346, "HOUSENUMBE": "111", "CALCADDRES": 111, "PRIMARYADD": "111 LOWER WATERFORD RD", "SITETYPE": "CULTURAL", "TOWNNAME": "WATERFORD", "ZIP": "05819", "GPSX": -71.907764, "GPSY": 44.354424, "MAIL": "PO Box 56", "STREETAD": "111 Lower Waterford Rd", "WEBADDRESS": "daviesmemoriallibrary.org", "CITY": "Lower Waterford", "COUNTY": "Caledonia", "TEL_NUM": "(802) 748-4609", "DIGINAME": "DaviesMemorial", "CONFIRMDAT": null, "CONFIRMPER": null }, "geometry": { "type": "Point", "coordinates": [ -71.907764301476703, 44.35442436571649 ] } },
{ "type": "Feature", "properties": { "ESITEID": 183193.000000, "FSCS_ID": "VT0110", "LIBRARY": "Norwich Public", "GEONAMEID": 14561, "HOUSENUMBE": "368", "CALCADDRES": 368, "PRIMARYADD": "368 MAIN ST", "SITETYPE": "CULTURAL", "TOWNNAME": "NORWICH", "ZIP": "05055", "GPSX": -72.308503, "GPSY": 43.716893, "MAIL": "PO Box 290", "STREETAD": "368 Main St", "WEBADDRESS": "www.norwichlibrary.org", "CITY": "Norwich", "COUNTY": "Windsor", "TEL_NUM": "(802) 649-1184", "DIGINAME": "NorwichPublic", "CONFIRMDAT": null, "CONFIRMPER": null }, "geometry": { "type": "Point", "coordinates": [ -72.308502730204282, 43.716892663175862 ] } },
{ "type": "Feature", "properties": { "ESITEID": 126313.000000, "FSCS_ID": "VT0072", "LIBRARY": "Hartland Public", "GEONAMEID": 9654, "HOUSENUMBE": "153", "CALCADDRES": 153, "PRIMARYADD": "153 US ROUTE 5", "SITETYPE": "SINGLE FAMILY DWELLING", "TOWNNAME": "HARTLAND", "ZIP": "05089", "GPSX": -72.402055, "GPSY": 43.540216, "MAIL": "PO Box 137", "STREETAD": "153 Route 5", "WEBADDRESS": "www.HartlandLibraryVT.org", "CITY": "Hartland", "COUNTY": "Windsor", "TEL_NUM": "(802) 436-2473", "DIGINAME": "HartlandPublic", "CONFIRMDAT": null, "CONFIRMPER": null }, "geometry": { "type": "Point", "coordinates": [ -72.402055197235171, 43.540216447007552 ] } },
{ "type": "Feature", "properties": { "ESITEID": 268279.000000, "FSCS_ID": "VT0166", "LIBRARY": "Joslin Memorial", "GEONAMEID": 21482, "HOUSENUMBE": "4391", "CALCADDRES": 4391, "PRIMARYADD": "4391 MAIN ST", "SITETYPE": "CULTURAL", "TOWNNAME": "WAITSFIELD", "ZIP": "05673", "GPSX": -72.824080, "GPSY": 44.190205, "MAIL": "PO Box 359", "STREETAD": "4391 Main St", "WEBADDRESS": "www.joslinmemoriallibrary.com", "CITY": "Waitsfield", "COUNTY": "Washington", "TEL_NUM": "(802) 496-4205", "DIGINAME": "JoslinMemorial", "CONFIRMDAT": null, "CONFIRMPER": null }, "geometry": { "type": "Point", "coordinates": [ -72.824080035909915, 44.190205130908318 ] } },
{ "type": "Feature", "properties": { "ESITEID": 259257.000000, "FSCS_ID": "VT0155", "LIBRARY": "Latham Memorial", "GEONAMEID": 20740, "HOUSENUMBE": "16", "CALCADDRES": 16, "PRIMARYADD": "16 LIBRARY RD", "SITETYPE": "CULTURAL", "TOWNNAME": "THETFORD", "ZIP": "05075", "GPSX": -72.229842, "GPSY": 43.818948, "MAIL": "PO Box 240", "STREETAD": "16 Library Ln", "WEBADDRESS": "thetfordlibraries.org", "CITY": "Thetford", "COUNTY": "Orange", "TEL_NUM": "(802) 785-", "DIGINAME": "LathamMemorial", "CONFIRMDAT": null, "CONFIRMPER": null }, "geometry": { "type": "Point", "coordinates": [ -72.229842348132252, 43.81894757824071 ] } },
{ "type": "Feature", "properties": { "ESITEID": 4388.000000, "FSCS_ID": "VT0004", "LIBRARY": "Martha Canfield Memorial", "GEONAMEID": 365, "HOUSENUMBE": "528", "CALCADDRES": 528, "PRIMARYADD": "528 E ARLINGTON RD", "SITETYPE": "EDUCATIONAL", "TOWNNAME": "ARLINGTON", "ZIP": "05250", "GPSX": -73.152600, "GPSY": 43.065037, "MAIL": "PO Box 267", "STREETAD": "528 E Arlington Rd", "WEBADDRESS": "http:\/\/marthacanfieldlibrary.org", "CITY": "Arlington", "COUNTY": "Bennington", "TEL_NUM": "(802) 375-6153", "DIGINAME": "MarthaCanfield", "CONFIRMDAT": null, "CONFIRMPER": null }, "geometry": { "type": "Point", "coordinates": [ -73.15260033772023, 43.06503686915336 ] } },
{ "type": "Feature", "properties": { "ESITEID": 5509.000000, "FSCS_ID": "VT0007", "LIBRARY": "H. F. Brigham Free", "GEONAMEID": 520, "HOUSENUMBE": "104", "CALCADDRES": 104, "PRIMARYADD": "104 MAIN ST N", "SITETYPE": "EDUCATIONAL", "TOWNNAME": "BAKERSFIELD", "ZIP": "05441", "GPSX": -72.800865, "GPSY": 44.783498, "MAIL": "PO Box 5", "STREETAD": "104 Main St", "WEBADDRESS": "(none)", "CITY": "Bakersfield", "COUNTY": "Franklin", "TEL_NUM": "(802) 827-4414", "DIGINAME": "HFBrighamFree", "CONFIRMDAT": null, "CONFIRMPER": null }, "geometry": { "type": "Point", "coordinates": [ -72.800865360316919, 44.783497879346065 ] } },
{ "type": "Feature", "properties": { "ESITEID": 6320.000000, "FSCS_ID": "VT0008", "LIBRARY": "Charles B. Danforth", "GEONAMEID": 627, "HOUSENUMBE": "6208", "CALCADDRES": 6208, "PRIMARYADD": "6208 VT ROUTE 12", "SITETYPE": "EDUCATIONAL", "TOWNNAME": "BARNARD", "ZIP": "05091", "GPSX": -72.619637, "GPSY": 43.729179, "MAIL": "PO Box 204", "STREETAD": "6208 VT Route 12", "WEBADDRESS": "(none)", "CITY": "Barnard", "COUNTY": "Windsor", "TEL_NUM": "(802) 234-9408", "DIGINAME": "CharlesBDanforth", "CONFIRMDAT": null, "CONFIRMPER": null }, "geometry": { "type": "Point", "coordinates": [ -72.61963653683182, 43.729179381502185 ] } },
{ "type": "Feature", "properties": { "ESITEID": 7537.000000, "FSCS_ID": "VT0010", "LIBRARY": "McIndoes Academy", "GEONAMEID": 26057, "HOUSENUMBE": "37", "CALCADDRES": 37, "PRIMARYADD": "37 ACADEMY LN", "SITETYPE": "EDUCATIONAL", "TOWNNAME": "BARNET", "ZIP": "05821", "GPSX": -72.064324, "GPSY": 44.264529, "MAIL": "PO Box 66", "STREETAD": "37 Academy Ln", "WEBADDRESS": "(none)", "CITY": "McIndoe Falls", "COUNTY": "Caledonia", "TEL_NUM": "(802) 866-5575", "DIGINAME": "McIndoesAcademy", "CONFIRMDAT": null, "CONFIRMPER": null }, "geometry": { "type": "Point", "coordinates": [ -72.064323992294078, 44.264529312875219 ] } },
{ "type": "Feature", "properties": { "ESITEID": 14961.000000, "FSCS_ID": "VT0012", "LIBRARY": "Barton Public", "GEONAMEID": 1673, "HOUSENUMBE": "100", "CALCADDRES": 100, "PRIMARYADD": "100 CHURCH ST", "SITETYPE": "GOVERNMENT", "TOWNNAME": "BARTON", "ZIP": "05822", "GPSX": -72.180511, "GPSY": 44.749607, "MAIL": "PO Box 549", "STREETAD": "100 Church St", "WEBADDRESS": "http:\/\/bartonpubliclibrary.org", "CITY": "Barton", "COUNTY": "Orleans", "TEL_NUM": "(802) 525-6524", "DIGINAME": "BartonPublic", "CONFIRMDAT": null, "CONFIRMPER": null }, "geometry": { "type": "Point", "coordinates": [ -72.18051147436195, 44.749607086853331 ] } },
{ "type": "Feature", "properties": { "ESITEID": 24174.000000, "FSCS_ID": "VT0017", "LIBRARY": "Bethel Public", "GEONAMEID": 25993, "HOUSENUMBE": "106", "CALCADDRES": 106, "PRIMARYADD": "106 MAIN ST", "SITETYPE": "PUBLIC GATHERING", "TOWNNAME": "BETHEL", "ZIP": "05032", "GPSX": -72.631658, "GPSY": 43.830002, "MAIL": "PO Box 354", "STREETAD": "106 Main St", "WEBADDRESS": "(none)", "CITY": "Bethel", "COUNTY": "Windsor", "TEL_NUM": "(802) 234-9107", "DIGINAME": "BethelPublic", "CONFIRMDAT": null, "CONFIRMPER": null }, "geometry": { "type": "Point", "coordinates": [ -72.631657920009502, 43.830002031461049 ] } },
{ "type": "Feature", "properties": { "ESITEID": 38098.000000, "FSCS_ID": "VT0023", "LIBRARY": "Island Pond Public", "GEONAMEID": 3296, "HOUSENUMBE": "49", "CALCADDRES": 49, "PRIMARYADD": "49 MILL ST EXT", "SITETYPE": "GOVERNMENT", "TOWNNAME": "BRIGHTON", "ZIP": "05846", "GPSX": -71.879920, "GPSY": 44.814943, "MAIL": "PO Box 422", "STREETAD": "49 Mill St Ext", "WEBADDRESS": "http:\/\/islandpondpubliclibrary.wordpress.com\/", "CITY": "Island Pond", "COUNTY": "Essex", "TEL_NUM": "(802) 723-6134", "DIGINAME": "IslandPondPublic", "CONFIRMDAT": null, "CONFIRMPER": null }, "geometry": { "type": "Point", "coordinates": [ -71.879919524868527, 44.814943399779281 ] } },
{ "type": "Feature", "properties": { "ESITEID": 40451.000000, "FSCS_ID": "VT0025", "LIBRARY": "Brookfield Free Public", "GEONAMEID": 3539, "HOUSENUMBE": "40", "CALCADDRES": 40, "PRIMARYADD": "40 RALPH RD", "SITETYPE": "GOVERNMENT", "TOWNNAME": "BROOKFIELD", "ZIP": "05036", "GPSX": -72.602768, "GPSY": 44.043159, "MAIL": "40 Ralph Rd", "STREETAD": "40 Ralph Rd", "WEBADDRESS": "www.brookfieldvt\/library", "CITY": "Brookfield", "COUNTY": "Orange", "TEL_NUM": "(802) 276-3358", "DIGINAME": "BrookfieldFree", "CONFIRMDAT": null, "CONFIRMPER": null }, "geometry": { "type": "Point", "coordinates": [ -72.602767945149466, 44.043159485361109 ] } },
{ "type": "Feature", "properties": { "ESITEID": 49156.000000, "FSCS_ID": "VT0029", "LIBRARY": "Fletcher Free", "GEONAMEID": 31235, "HOUSENUMBE": "235", "CALCADDRES": 235, "PRIMARYADD": "235 COLLEGE ST", "SITETYPE": "GOVERNMENT", "TOWNNAME": "BURLINGTON", "ZIP": "05401", "GPSX": -73.210094, "GPSY": 44.476897, "MAIL": "235 College St", "STREETAD": "-", "WEBADDRESS": "www.fletcherfree.org", "CITY": "Burlington", "COUNTY": "Chittenden", "TEL_NUM": "(802) 863-3403", "DIGINAME": "FletcherFree", "CONFIRMDAT": null, "CONFIRMPER": null }, "geometry": { "type": "Point", "coordinates": [ -73.210094433329573, 44.476897214489568 ] } },
{ "type": "Feature", "properties": { "ESITEID": 134946.000000, "FSCS_ID": "VT0079", "LIBRARY": "Jamaica Memorial", "GEONAMEID": 10457, "HOUSENUMBE": "17", "CALCADDRES": 17, "PRIMARYADD": "17 DEPOT ST", "SITETYPE": "EDUCATIONAL", "TOWNNAME": "JAMAICA", "ZIP": "05343", "GPSX": -72.778358, "GPSY": 43.100525, "MAIL": "PO Box 266", "STREETAD": "17 Depot St", "WEBADDRESS": "www.jamaicavtlibrary.org", "CITY": "Jamaica", "COUNTY": "Windham", "TEL_NUM": "(802) 874-4901", "DIGINAME": "JamaicaMemorial", "CONFIRMDAT": null, "CONFIRMPER": null }, "geometry": { "type": "Point", "coordinates": [ -72.778358398075341, 43.100525142431067 ] } },
{ "type": "Feature", "properties": { "ESITEID": 55869.000000, "FSCS_ID": "VT0030", "LIBRARY": "Cabot Public", "GEONAMEID": 3779, "HOUSENUMBE": "3084", "CALCADDRES": 3084, "PRIMARYADD": "3084 MAIN ST", "SITETYPE": "GOVERNMENT", "TOWNNAME": "CABOT", "ZIP": "05647", "GPSX": -72.310997, "GPSY": 44.402111, "MAIL": "PO Box 6", "STREETAD": "3084 Main St", "WEBADDRESS": "https:\/\/sites.google.com\/site\/cabotpubliclibrary\/", "CITY": "Cabot", "COUNTY": "Washington", "TEL_NUM": "(802) 563-2721", "DIGINAME": "CabotPublic", "CONFIRMDAT": null, "CONFIRMPER": null }, "geometry": { "type": "Point", "coordinates": [ -72.310997008618429, 44.402111054221372 ] } },
{ "type": "Feature", "properties": { "ESITEID": 57526.000000, "FSCS_ID": "VT0031", "LIBRARY": "Varnum Memorial", "GEONAMEID": 3915, "HOUSENUMBE": "194", "CALCADDRES": 194, "PRIMARYADD": "194 MAIN ST", "SITETYPE": "GOVERNMENT", "TOWNNAME": "CAMBRIDGE", "ZIP": "05464", "GPSX": -72.827996, "GPSY": 44.646310, "MAIL": "PO Box 198", "STREETAD": "194 Main St", "WEBADDRESS": "www.thevarnum.org", "CITY": "Jeffersonville", "COUNTY": "Lamoille", "TEL_NUM": "(802) 644-2117", "DIGINAME": "VarnumMemorial", "CONFIRMDAT": null, "CONFIRMPER": null }, "geometry": { "type": "Point", "coordinates": [ -72.827996350496633, 44.646309978856571 ] } },
{ "type": "Feature", "properties": { "ESITEID": 61952.000000, "FSCS_ID": "VT0034", "LIBRARY": "Cavendish Fletcher Community", "GEONAMEID": 4391, "HOUSENUMBE": "573", "CALCADDRES": 573, "PRIMARYADD": "573 MAIN ST", "SITETYPE": "EDUCATIONAL", "TOWNNAME": "CAVENDISH", "ZIP": "05153", "GPSX": -72.637199, "GPSY": 43.383949, "MAIL": "PO Box 266", "STREETAD": "573 Main St", "WEBADDRESS": "www.cavendishlibrary.org", "CITY": "Proctorsville", "COUNTY": "Windsor", "TEL_NUM": "(802) 226-7503", "DIGINAME": "Cavendish", "CONFIRMDAT": null, "CONFIRMPER": null }, "geometry": { "type": "Point", "coordinates": [ -72.637199401636195, 43.383949280307476 ] } },
{ "type": "Feature", "properties": { "ESITEID": 64924.000000, "FSCS_ID": "VT0035", "LIBRARY": "Charlotte", "GEONAMEID": 4568, "HOUSENUMBE": "115", "CALCADDRES": 115, "PRIMARYADD": "115 FERRY RD", "SITETYPE": "GOVERNMENT", "TOWNNAME": "CHARLOTTE", "ZIP": "05445", "GPSX": -73.249382, "GPSY": 44.310692, "MAIL": "PO Box 120", "STREETAD": "115 Ferry Rd", "WEBADDRESS": "www.charlottepubliclibrary.org", "CITY": "Charlotte", "COUNTY": "Chittenden", "TEL_NUM": "(802) 425-3864", "DIGINAME": "Charlotte", "CONFIRMDAT": null, "CONFIRMPER": null }, "geometry": { "type": "Point", "coordinates": [ -73.2493820197177, 44.310691832542723 ] } },
{ "type": "Feature", "properties": { "ESITEID": 65470.000000, "FSCS_ID": "VT0036", "LIBRARY": "Chelsea Public", "GEONAMEID": 4743, "HOUSENUMBE": "296", "CALCADDRES": 296, "PRIMARYADD": "296 VT ROUTE 110", "SITETYPE": "GOVERNMENT", "TOWNNAME": "CHELSEA", "ZIP": "05038", "GPSX": -72.447395, "GPSY": 43.989132, "MAIL": "PO Box 67", "STREETAD": "296 Vt Route 110", "WEBADDRESS": "http:\/\/chelsealibrary.kohavt.org", "CITY": "Chelsea", "COUNTY": "Orange", "TEL_NUM": "(802) 685-2188", "DIGINAME": "ChelseaPublic", "CONFIRMDAT": null, "CONFIRMPER": null }, "geometry": { "type": "Point", "coordinates": [ -72.44739532530285, 43.989131927745014 ] } },
{ "type": "Feature", "properties": { "ESITEID": 67964.000000, "FSCS_ID": "VT0038", "LIBRARY": "Chittenden Public", "GEONAMEID": 4929, "HOUSENUMBE": "223", "CALCADDRES": 223, "PRIMARYADD": "223 CHITTENDEN RD", "SITETYPE": "EDUCATIONAL", "TOWNNAME": "CHITTENDEN", "ZIP": "05737", "GPSX": -72.952033, "GPSY": 43.700942, "MAIL": "PO Box 90", "STREETAD": "Barstow School", "WEBADDRESS": "http:\/\/cplibrary.home.comcast.net\/~cplibrary\/", "CITY": "Chittenden", "COUNTY": "Rutland", "TEL_NUM": "(802) 773-3531", "DIGINAME": "ChittendenPublic", "CONFIRMDAT": null, "CONFIRMPER": null }, "geometry": { "type": "Point", "coordinates": [ -72.952032790124974, 43.700941645879119 ] } },
{ "type": "Feature", "properties": { "ESITEID": 72682.000000, "FSCS_ID": "VT0039", "LIBRARY": "Burnham Memorial", "GEONAMEID": 5142, "HOUSENUMBE": "898", "CALCADDRES": 898, "PRIMARYADD": "898 MAIN ST", "SITETYPE": "HOUSE OF WORSHIP", "TOWNNAME": "COLCHESTER", "ZIP": "05446", "GPSX": -73.149079, "GPSY": 44.543768, "MAIL": "898 Main St", "STREETAD": "-", "WEBADDRESS": "www.colchestervt.gov\/Library", "CITY": "Colchester", "COUNTY": "Chittenden", "TEL_NUM": "(802) 264-5660", "DIGINAME": "BurnhamMemorial", "CONFIRMDAT": "2014\/12\/23", "CONFIRMPER": "Joshua Muse - Burnham Memorial" }, "geometry": { "type": "Point", "coordinates": [ -73.149079228200748, 44.543768425321197 ] } },
{ "type": "Feature", "properties": { "ESITEID": 118508.000000, "FSCS_ID": "VT0069", "LIBRARY": "Hancock Free Public", "GEONAMEID": 8878, "HOUSENUMBE": "47", "CALCADDRES": 47, "PRIMARYADD": "47 VT ROUTE 125", "SITETYPE": "GOVERNMENT", "TOWNNAME": "HANCOCK", "ZIP": "05748", "GPSX": -72.842087, "GPSY": 43.926407, "MAIL": "PO Box 159", "STREETAD": "47 Vt Route 125", "WEBADDRESS": "(none)", "CITY": "Hancock", "COUNTY": "Addison", "TEL_NUM": "(802) 767-4651", "DIGINAME": "HancockFreePublic", "CONFIRMDAT": null, "CONFIRMPER": null }, "geometry": { "type": "Point", "coordinates": [ -72.842086793148198, 43.926406861044761 ] } },
{ "type": "Feature", "properties": { "ESITEID": 133697.000000, "FSCS_ID": "VT0077", "LIBRARY": "Leach Public", "GEONAMEID": 10335, "HOUSENUMBE": "130", "CALCADDRES": 130, "PRIMARYADD": "130 PARK AVE", "SITETYPE": "PUBLIC GATHERING", "TOWNNAME": "IRASBURG", "ZIP": "05845", "GPSX": -72.278109, "GPSY": 44.802764, "MAIL": "PO Box 178", "STREETAD": "130 Park Ave", "WEBADDRESS": "(none)", "CITY": "Irasburg", "COUNTY": "Orleans", "TEL_NUM": "(802) 754-2526", "DIGINAME": "LeachPublic", "CONFIRMDAT": null, "CONFIRMPER": null }, "geometry": { "type": "Point", "coordinates": [ -72.278109470195886, 44.802764441599074 ] } },
{ "type": "Feature", "properties": { "ESITEID": 134222.000000, "FSCS_ID": "VT0078", "LIBRARY": "Isle La Motte Free Public", "GEONAMEID": 10384, "HOUSENUMBE": "2238", "CALCADDRES": 2238, "PRIMARYADD": "2238 MAIN ST", "SITETYPE": "GOVERNMENT", "TOWNNAME": "ISLE LA MOTTE", "ZIP": "05463", "GPSX": -73.338357, "GPSY": 44.878320, "MAIL": "2238 Main St", "STREETAD": "N\/R", "WEBADDRESS": "(none)", "CITY": "Isle La Motte", "COUNTY": "Grand Isle", "TEL_NUM": "(802) 928-4113", "DIGINAME": "IsleLaMotteFree", "CONFIRMDAT": null, "CONFIRMPER": null }, "geometry": { "type": "Point", "coordinates": [ -73.338357447829779, 44.878319720959936 ] } }
]
}
